<?xml version="1.0" encoding="UTF-8"?>
<kml xmlns="http://www.opengis.net/kml/2.2">
  <Document>
    <name>Маршрути від пункту ЦНАП с.Поляна, село, вул. Духновича, Поляна, Закарпатська область до пункту Державний термальний басейн Берегово, вулиця Корятовича, Берегове, Закарпатська область</name>
    <Style id="icon-1899-DB4436-nodesc-normal">
      <IconStyle>
        <color>ff3644db</color>
        <scale>1</scale>
        <Icon>
          <href>https://www.gstatic.com/mapspro/images/stock/503-wht-blank_maps.png</href>
        </Icon>
        <hotSpot x="32" xunits="pixels" y="64" yunits="insetPixels"/>
      </IconStyle>
      <LabelStyle>
        <scale>0</scale>
      </LabelStyle>
      <BalloonStyle>
        <text><![CDATA[<h3>$[name]</h3>]]></text>
      </BalloonStyle>
    </Style>
    <Style id="icon-1899-DB4436-nodesc-highlight">
      <IconStyle>
        <color>ff3644db</color>
        <scale>1</scale>
        <Icon>
          <href>https://www.gstatic.com/mapspro/images/stock/503-wht-blank_maps.png</href>
        </Icon>
        <hotSpot x="32" xunits="pixels" y="64" yunits="insetPixels"/>
      </IconStyle>
      <LabelStyle>
        <scale>1</scale>
      </LabelStyle>
      <BalloonStyle>
        <text><![CDATA[<h3>$[name]</h3>]]></text>
      </BalloonStyle>
    </Style>
    <StyleMap id="icon-1899-DB4436-nodesc">
      <Pair>
        <key>normal</key>
        <styleUrl>#icon-1899-DB4436-nodesc-normal</styleUrl>
      </Pair>
      <Pair>
        <key>highlight</key>
        <styleUrl>#icon-1899-DB4436-nodesc-highlight</styleUrl>
      </Pair>
    </StyleMap>
    <Style id="line-1267FF-5000-nodesc-normal">
      <LineStyle>
        <color>ffff6712</color>
        <width>5</width>
      </LineStyle>
      <BalloonStyle>
        <text><![CDATA[<h3>$[name]</h3>]]></text>
      </BalloonStyle>
    </Style>
    <Style id="line-1267FF-5000-nodesc-highlight">
      <LineStyle>
        <color>ffff6712</color>
        <width>7.5</width>
      </LineStyle>
      <BalloonStyle>
        <text><![CDATA[<h3>$[name]</h3>]]></text>
      </BalloonStyle>
    </Style>
    <StyleMap id="line-1267FF-5000-nodesc">
      <Pair>
        <key>normal</key>
        <styleUrl>#line-1267FF-5000-nodesc-normal</styleUrl>
      </Pair>
      <Pair>
        <key>highlight</key>
        <styleUrl>#line-1267FF-5000-nodesc-highlight</styleUrl>
      </Pair>
    </StyleMap>
    <Placemark>
      <name>Маршрути від пункту ЦНАП с.Поляна, село, вул. Духновича, Поляна, Закарпатська область до пункту Державний термальний басейн Берегово, вулиця Корятовича, Берегове, Закарпатська область</name>
      <styleUrl>#line-1267FF-5000-nodesc</styleUrl>
      <LineString>
        <tessellate>1</tessellate>
        <coordinates>
          22.96688,48.6212,0
          22.96688,48.62101,0
          22.96685,48.62088,0
          22.96671,48.62056,0
          22.96542,48.6178,0
          22.96535,48.61763,0
          22.96403,48.61473,0
          22.96395,48.61453,0
          22.96379,48.61418,0
          22.96354,48.61359,0
          22.9634,48.61337,0
          22.9632,48.61302,0
          22.96319,48.61297,0
          22.96319,48.61293,0
          22.9632,48.6129,0
          22.96325,48.61279,0
          22.96333,48.61268,0
          22.96334,48.61265,0
          22.96334,48.61256,0
          22.96329,48.61248,0
          22.96328,48.61245,0
          22.96317,48.61232,0
          22.96305,48.61216,0
          22.96305,48.61215,0
          22.96296,48.612,0
          22.96296,48.61199,0
          22.96289,48.61184,0
          22.96286,48.61174,0
          22.96284,48.61164,0
          22.96278,48.61112,0
          22.96278,48.61097,0
          22.96283,48.61056,0
          22.96293,48.60998,0
          22.96296,48.60966,0
          22.963,48.60942,0
          22.96304,48.60931,0
          22.96306,48.60928,0
          22.96313,48.60914,0
          22.96323,48.609,0
          22.96325,48.60898,0
          22.96337,48.60883,0
          22.96362,48.60858,0
          22.96579,48.60664,0
          22.96679,48.60579,0
          22.96777,48.60493,0
          22.96794,48.60477,0
          22.96798,48.60471,0
          22.96799,48.60468,0
          22.96802,48.6045,0
          22.96805,48.60445,0
          22.96808,48.60439,0
          22.9682,48.60426,0
          22.96839,48.60416,0
          22.96874,48.60396,0
          22.96892,48.60387,0
          22.969,48.60381,0
          22.96941,48.60346,0
          22.96972,48.60317,0
          22.97,48.60286,0
          22.97015,48.60271,0
          22.9702,48.60265,0
          22.97033,48.60246,0
          22.97042,48.60227,0
          22.97043,48.60221,0
          22.97048,48.60202,0
          22.97048,48.60149,0
          22.97049,48.60142,0
          22.97043,48.60065,0
          22.97042,48.59997,0
          22.97043,48.59967,0
          22.97049,48.59935,0
          22.97192,48.59443,0
          22.97216,48.59355,0
          22.9724,48.59276,0
          22.97252,48.59231,0
          22.97256,48.59211,0
          22.97257,48.59199,0
          22.97258,48.59195,0
          22.97258,48.59191,0
          22.97257,48.59181,0
          22.97257,48.59174,0
          22.97218,48.58983,0
          22.97205,48.58912,0
          22.97205,48.58911,0
          22.97184,48.58826,0
          22.97134,48.5859,0
          22.97117,48.58501,0
          22.97095,48.58412,0
          22.97079,48.58336,0
          22.9706,48.58255,0
          22.97006,48.58051,0
          22.9699,48.5797,0
          22.96976,48.57914,0
          22.96961,48.5788,0
          22.9695,48.57866,0
          22.9686,48.57793,0
          22.96842,48.57769,0
          22.96826,48.57724,0
          22.96819,48.57692,0
          22.96818,48.57685,0
          22.96816,48.5761,0
          22.96816,48.5757,0
          22.96815,48.57539,0
          22.96824,48.5751,0
          22.96828,48.57499,0
          22.96846,48.57442,0
          22.96853,48.57411,0
          22.9685,48.57387,0
          22.96753,48.57233,0
          22.96733,48.57203,0
          22.96497,48.56891,0
          22.96451,48.56827,0
          22.96423,48.56792,0
          22.96375,48.56728,0
          22.96349,48.56696,0
          22.96345,48.56692,0
          22.96341,48.56686,0
          22.96336,48.56682,0
          22.96328,48.56674,0
          22.96326,48.56673,0
          22.96324,48.56671,0
          22.96321,48.5667,0
          22.96319,48.56668,0
          22.96317,48.56667,0
          22.96315,48.56665,0
          22.96313,48.56664,0
          22.9631,48.56662,0
          22.96308,48.56661,0
          22.96307,48.5666,0
          22.96304,48.56659,0
          22.96303,48.56658,0
          22.9629,48.56652,0
          22.96283,48.56648,0
          22.96269,48.56642,0
          22.96213,48.56615,0
          22.96177,48.56595,0
          22.96122,48.56562,0
          22.96116,48.56559,0
          22.96039,48.56508,0
          22.96034,48.56506,0
          22.95527,48.56179,0
          22.95516,48.56175,0
          22.95499,48.56167,0
          22.95455,48.56137,0
          22.95393,48.56098,0
          22.95386,48.56095,0
          22.95352,48.56078,0
          22.95293,48.56056,0
          22.94934,48.55953,0
          22.94838,48.55923,0
          22.94684,48.5587,0
          22.94515,48.55808,0
          22.94468,48.55788,0
          22.94369,48.55738,0
          22.94324,48.55717,0
          22.94264,48.55693,0
          22.94075,48.55631,0
          22.94008,48.55612,0
          22.93945,48.55596,0
          22.93885,48.55584,0
          22.93872,48.55579,0
          22.93848,48.55572,0
          22.93795,48.55549,0
          22.93761,48.55529,0
          22.93756,48.55525,0
          22.93722,48.55502,0
          22.93705,48.55489,0
          22.93687,48.55477,0
          22.93687,48.55476,0
          22.93649,48.55446,0
          22.93617,48.55418,0
          22.9353,48.55348,0
          22.93297,48.55153,0
          22.93262,48.55121,0
          22.93222,48.55078,0
          22.93183,48.55031,0
          22.93166,48.55009,0
          22.93157,48.54999,0
          22.93133,48.54969,0
          22.93132,48.54967,0
          22.9307,48.54887,0
          22.93063,48.54876,0
          22.93058,48.54871,0
          22.93,48.54795,0
          22.92963,48.54741,0
          22.92929,48.54684,0
          22.92925,48.54674,0
          22.92911,48.54644,0
          22.92905,48.54629,0
          22.92899,48.546,0
          22.92897,48.54574,0
          22.929,48.54541,0
          22.92904,48.54513,0
          22.92916,48.54471,0
          22.92946,48.54391,0
          22.92953,48.54366,0
          22.92956,48.54351,0
          22.92957,48.54339,0
          22.92958,48.54337,0
          22.92959,48.54319,0
          22.92961,48.54303,0
          22.92961,48.54294,0
          22.92962,48.54284,0
          22.9296,48.54257,0
          22.92955,48.54232,0
          22.92949,48.5421,0
          22.92941,48.54186,0
          22.92939,48.54177,0
          22.9293,48.54154,0
          22.92921,48.54134,0
          22.92911,48.54115,0
          22.929,48.54099,0
          22.92882,48.54076,0
          22.92855,48.54047,0
          22.92819,48.54013,0
          22.92774,48.53976,0
          22.92748,48.53958,0
          22.92721,48.53942,0
          22.92643,48.53904,0
          22.92606,48.53888,0
          22.92482,48.53838,0
          22.92481,48.53837,0
          22.92459,48.53829,0
          22.92436,48.53819,0
          22.92273,48.53755,0
          22.92272,48.53755,0
          22.92258,48.53749,0
          22.92249,48.53746,0
          22.92249,48.53745,0
          22.92014,48.53655,0
          22.92013,48.53654,0
          22.91933,48.53628,0
          22.91903,48.5362,0
          22.91888,48.53617,0
          22.91878,48.53614,0
          22.91837,48.53607,0
          22.91764,48.53598,0
          22.91672,48.53593,0
          22.91627,48.53593,0
          22.91593,48.53594,0
          22.91589,48.53595,0
          22.91556,48.53596,0
          22.91527,48.53598,0
          22.91465,48.53606,0
          22.91443,48.5361,0
          22.9138,48.53625,0
          22.91356,48.53632,0
          22.91215,48.53684,0
          22.91058,48.53746,0
          22.90978,48.53776,0
          22.90963,48.5378,0
          22.90952,48.53784,0
          22.90935,48.53789,0
          22.90889,48.538,0
          22.90887,48.538,0
          22.90866,48.53805,0
          22.9082,48.53812,0
          22.90808,48.53813,0
          22.90807,48.53814,0
          22.9079,48.53815,0
          22.90781,48.53815,0
          22.90744,48.53817,0
          22.90622,48.5381,0
          22.90591,48.53806,0
          22.90569,48.53804,0
          22.90065,48.53723,0
          22.90039,48.53718,0
          22.89432,48.5362,0
          22.89411,48.53616,0
          22.89359,48.53608,0
          22.89314,48.53599,0
          22.89306,48.53598,0
          22.89284,48.53594,0
          22.8928,48.53592,0
          22.89261,48.53588,0
          22.89255,48.53586,0
          22.89232,48.53576,0
          22.89189,48.53554,0
          22.89185,48.53551,0
          22.89139,48.53522,0
          22.89095,48.5349,0
          22.89094,48.5349,0
          22.89076,48.53476,0
          22.89055,48.53461,0
          22.89026,48.53443,0
          22.88885,48.53361,0
          22.88849,48.53336,0
          22.88819,48.53311,0
          22.88803,48.53294,0
          22.88788,48.53275,0
          22.88759,48.53234,0
          22.88745,48.53217,0
          22.88729,48.53199,0
          22.88701,48.5316,0
          22.88313,48.52773,0
          22.88291,48.5275,0
          22.88273,48.52735,0
          22.88191,48.52654,0
          22.8816,48.52625,0
          22.88085,48.5255,0
          22.87962,48.52431,0
          22.87933,48.524,0
          22.87913,48.52374,0
          22.87899,48.52362,0
          22.87844,48.5232,0
          22.87819,48.52303,0
          22.878,48.52292,0
          22.87771,48.52277,0
          22.87751,48.52265,0
          22.87741,48.5226,0
          22.87707,48.52241,0
          22.8754,48.52154,0
          22.87539,48.52154,0
          22.87332,48.52046,0
          22.87313,48.52038,0
          22.87271,48.52016,0
          22.87187,48.51968,0
          22.87081,48.51895,0
          22.86505,48.51475,0
          22.86482,48.51457,0
          22.8601,48.51117,0
          22.8595,48.51072,0
          22.85931,48.51059,0
          22.8588,48.51021,0
          22.85858,48.51006,0
          22.85639,48.50846,0
          22.8562,48.50833,0
          22.85511,48.50753,0
          22.85492,48.5074,0
          22.85108,48.50461,0
          22.85097,48.50452,0
          22.84811,48.50245,0
          22.84808,48.50242,0
          22.84772,48.50215,0
          22.84731,48.50186,0
          22.84723,48.50181,0
          22.84667,48.50141,0
          22.8466,48.50137,0
          22.84622,48.50111,0
          22.84622,48.5011,0
          22.84618,48.50108,0
          22.84572,48.5008,0
          22.84534,48.50059,0
          22.84499,48.50041,0
          22.84445,48.50016,0
          22.84358,48.49983,0
          22.84238,48.49941,0
          22.84224,48.49935,0
          22.84166,48.49916,0
          22.84135,48.49904,0
          22.83909,48.49825,0
          22.83865,48.49804,0
          22.83822,48.49782,0
          22.83815,48.49779,0
          22.83766,48.49752,0
          22.83664,48.49688,0
          22.83597,48.49634,0
          22.83569,48.49607,0
          22.83548,48.49584,0
          22.8354,48.49576,0
          22.83535,48.49569,0
          22.83521,48.49553,0
          22.83514,48.49544,0
          22.83508,48.49538,0
          22.83493,48.49518,0
          22.83435,48.49452,0
          22.8341,48.49428,0
          22.83382,48.49405,0
          22.83329,48.4937,0
          22.83313,48.49362,0
          22.83301,48.49355,0
          22.83269,48.49341,0
          22.83236,48.49329,0
          22.83226,48.49327,0
          22.83196,48.49319,0
          22.82805,48.49239,0
          22.82783,48.49233,0
          22.82773,48.49229,0
          22.82738,48.49217,0
          22.82706,48.49204,0
          22.82681,48.49191,0
          22.82645,48.4917,0
          22.82609,48.49144,0
          22.8252,48.49074,0
          22.82517,48.49072,0
          22.82468,48.49033,0
          22.82427,48.49004,0
          22.82352,48.4896,0
          22.82322,48.48948,0
          22.82276,48.48928,0
          22.8213,48.48881,0
          22.82056,48.4886,0
          22.82055,48.4886,0
          22.82016,48.48852,0
          22.8197,48.48845,0
          22.81898,48.4884,0
          22.81745,48.48839,0
          22.81704,48.48837,0
          22.81575,48.48836,0
          22.81475,48.48829,0
          22.81471,48.48828,0
          22.81388,48.48821,0
          22.8131,48.48811,0
          22.81156,48.48783,0
          22.81072,48.48765,0
          22.81025,48.48751,0
          22.80999,48.48741,0
          22.80907,48.487,0
          22.80883,48.48688,0
          22.80832,48.48666,0
          22.80801,48.48642,0
          22.80772,48.48617,0
          22.80732,48.4857,0
          22.80731,48.48568,0
          22.80674,48.48499,0
          22.80673,48.48497,0
          22.80672,48.48494,0
          22.80665,48.48481,0
          22.80662,48.48478,0
          22.8065,48.48468,0
          22.8064,48.48458,0
          22.80619,48.4844,0
          22.8061,48.48434,0
          22.8058,48.48412,0
          22.80516,48.48375,0
          22.80453,48.4835,0
          22.80423,48.4834,0
          22.80374,48.48327,0
          22.79425,48.48123,0
          22.79423,48.48123,0
          22.79215,48.48078,0
          22.79193,48.48074,0
          22.79139,48.48061,0
          22.78948,48.48021,0
          22.78874,48.48007,0
          22.78832,48.47997,0
          22.78754,48.47981,0
          22.78538,48.47932,0
          22.78251,48.47871,0
          22.78248,48.4787,0
          22.7816,48.47851,0
          22.77972,48.47799,0
          22.7797,48.47799,0
          22.77946,48.47791,0
          22.77935,48.47788,0
          22.77875,48.47765,0
          22.77821,48.47741,0
          22.77808,48.47734,0
          22.77753,48.47707,0
          22.77722,48.4769,0
          22.77702,48.47678,0
          22.77693,48.47672,0
          22.77662,48.47655,0
          22.77632,48.47635,0
          22.77603,48.47617,0
          22.77602,48.47616,0
          22.77328,48.47445,0
          22.77276,48.47416,0
          22.77224,48.47392,0
          22.77195,48.47381,0
          22.77172,48.47371,0
          22.77171,48.47371,0
          22.77103,48.4735,0
          22.77049,48.47337,0
          22.7699,48.47326,0
          22.76809,48.47299,0
          22.7662,48.47263,0
          22.76619,48.47263,0
          22.76593,48.47258,0
          22.76568,48.47252,0
          22.76567,48.47252,0
          22.76489,48.47237,0
          22.7641,48.47225,0
          22.764,48.47224,0
          22.76376,48.4722,0
          22.76343,48.47216,0
          22.76316,48.47211,0
          22.76141,48.4719,0
          22.76106,48.47188,0
          22.76087,48.47188,0
          22.75856,48.4718,0
          22.75832,48.4718,0
          22.75789,48.47178,0
          22.75732,48.47178,0
          22.75548,48.47172,0
          22.75525,48.47172,0
          22.75504,48.47171,0
          22.75459,48.47167,0
          22.75447,48.47165,0
          22.75428,48.47163,0
          22.75358,48.47147,0
          22.75347,48.47143,0
          22.75339,48.47141,0
          22.75308,48.4713,0
          22.75278,48.47116,0
          22.75251,48.47102,0
          22.75225,48.47086,0
          22.75172,48.47048,0
          22.75137,48.47025,0
          22.75102,48.47004,0
          22.75068,48.46985,0
          22.75033,48.4697,0
          22.74993,48.46957,0
          22.74958,48.46949,0
          22.74956,48.46949,0
          22.74917,48.46941,0
          22.74881,48.46938,0
          22.74842,48.46938,0
          22.74792,48.46943,0
          22.74754,48.46949,0
          22.74712,48.46959,0
          22.74606,48.46993,0
          22.74553,48.47008,0
          22.74503,48.4702,0
          22.7446,48.47028,0
          22.74419,48.47033,0
          22.74365,48.47035,0
          22.74339,48.47035,0
          22.74335,48.47034,0
          22.74291,48.4703,0
          22.74282,48.4703,0
          22.74174,48.47019,0
          22.74148,48.47015,0
          22.74082,48.47007,0
          22.74032,48.46997,0
          22.73998,48.46988,0
          22.73962,48.46975,0
          22.73899,48.46949,0
          22.7384,48.46927,0
          22.7373,48.46891,0
          22.73705,48.46884,0
          22.73691,48.46879,0
          22.73647,48.46868,0
          22.73568,48.46853,0
          22.73524,48.46848,0
          22.73467,48.46843,0
          22.73436,48.46842,0
          22.73396,48.46842,0
          22.73327,48.46845,0
          22.73243,48.46851,0
          22.73143,48.46863,0
          22.73141,48.46864,0
          22.73117,48.46866,0
          22.73063,48.46873,0
          22.72986,48.46877,0
          22.72943,48.46876,0
          22.72928,48.46874,0
          22.72899,48.46872,0
          22.7287,48.46869,0
          22.7281,48.46861,0
          22.72795,48.46857,0
          22.72779,48.46854,0
          22.7277,48.46851,0
          22.7274,48.46843,0
          22.72702,48.4683,0
          22.72667,48.46816,0
          22.72651,48.46808,0
          22.72626,48.46794,0
          22.72617,48.46788,0
          22.72593,48.46774,0
          22.72575,48.46762,0
          22.72553,48.46745,0
          22.72532,48.46727,0
          22.72516,48.46712,0
          22.72514,48.46709,0
          22.72499,48.46695,0
          22.72468,48.46664,0
          22.72368,48.46558,0
          22.72351,48.46542,0
          22.72276,48.46467,0
          22.7226,48.46448,0
          22.72189,48.46372,0
          22.72147,48.46329,0
          22.72096,48.4628,0
          22.72064,48.46252,0
          22.72014,48.46214,0
          22.71974,48.46187,0
          22.71887,48.46132,0
          22.71846,48.46108,0
          22.71824,48.46097,0
          22.71801,48.46087,0
          22.71753,48.4607,0
          22.717,48.46048,0
          22.71608,48.46016,0
          22.71549,48.46,0
          22.71404,48.45957,0
          22.7136,48.45945,0
          22.71359,48.45945,0
          22.71353,48.45941,0
          22.71311,48.45931,0
          22.7131,48.4593,0
          22.71286,48.45925,0
          22.71285,48.45924,0
          22.71095,48.45877,0
          22.71083,48.45876,0
          22.71065,48.45873,0
          22.70988,48.45855,0
          22.70984,48.45856,0
          22.70982,48.45856,0
          22.70973,48.45858,0
          22.70964,48.45858,0
          22.70946,48.45854,0
          22.70942,48.45852,0
          22.70939,48.4585,0
          22.70934,48.45846,0
          22.70931,48.45842,0
          22.70917,48.45836,0
          22.70874,48.45822,0
          22.70857,48.45815,0
          22.70688,48.45773,0
          22.704,48.45697,0
          22.70162,48.45627,0
          22.70153,48.45625,0
          22.69697,48.45478,0
          22.69643,48.45459,0
          22.69468,48.45405,0
          22.6939,48.45379,0
          22.69303,48.45353,0
          22.69185,48.45314,0
          22.69169,48.45308,0
          22.69167,48.45307,0
          22.69072,48.45274,0
          22.68827,48.45195,0
          22.68811,48.45193,0
          22.68766,48.4518,0
          22.6873,48.45171,0
          22.68668,48.45158,0
          22.68655,48.45156,0
          22.68634,48.45154,0
          22.68568,48.4515,0
          22.68568,48.45143,0
          22.68567,48.45133,0
          22.68567,48.4513,0
          22.68568,48.45128,0
          22.6857,48.45122,0
          22.68574,48.45116,0
          22.68585,48.45107,0
          22.68594,48.45097,0
          22.68601,48.45088,0
          22.68606,48.4508,0
          22.68606,48.4506,0
          22.68608,48.45005,0
          22.68603,48.44883,0
          22.68611,48.44551,0
          22.68612,48.44535,0
          22.68616,48.44275,0
          22.68619,48.44209,0
          22.6862,48.44207,0
          22.68621,48.4419,0
          22.68626,48.44156,0
          22.68627,48.44154,0
          22.68628,48.44145,0
          22.68634,48.44119,0
          22.68653,48.44054,0
          22.68661,48.44032,0
          22.68678,48.43991,0
          22.6869,48.43968,0
          22.68695,48.43957,0
          22.68713,48.43922,0
          22.68719,48.43914,0
          22.68724,48.43905,0
          22.68767,48.43846,0
          22.68803,48.438,0
          22.68893,48.43677,0
          22.68905,48.43659,0
          22.68916,48.43644,0
          22.68924,48.43631,0
          22.68929,48.43621,0
          22.68935,48.43611,0
          22.68941,48.43603,0
          22.68949,48.43594,0
          22.68979,48.43564,0
          22.68992,48.43552,0
          22.69162,48.43414,0
          22.69186,48.43391,0
          22.69195,48.43381,0
          22.69237,48.4334,0
          22.6924,48.43336,0
          22.69266,48.43312,0
          22.69289,48.43288,0
          22.69319,48.43262,0
          22.6932,48.43262,0
          22.69327,48.43256,0
          22.69344,48.43244,0
          22.69357,48.43237,0
          22.69387,48.43224,0
          22.69444,48.43204,0
          22.69445,48.43203,0
          22.69457,48.43199,0
          22.69491,48.43182,0
          22.69517,48.43167,0
          22.70021,48.42849,0
          22.70208,48.42718,0
          22.70234,48.42697,0
          22.70248,48.42683,0
          22.70263,48.42665,0
          22.70267,48.42661,0
          22.70282,48.42638,0
          22.70291,48.42621,0
          22.70301,48.42596,0
          22.70304,48.42585,0
          22.70308,48.42561,0
          22.70308,48.42537,0
          22.70307,48.42524,0
          22.70302,48.42491,0
          22.70285,48.4243,0
          22.70278,48.42413,0
          22.70273,48.42403,0
          22.70272,48.424,0
          22.70265,48.42388,0
          22.7021,48.42309,0
          22.69833,48.41811,0
          22.6964,48.41548,0
          22.69486,48.41354,0
          22.69113,48.40864,0
          22.69112,48.40864,0
          22.68623,48.40221,0
          22.68523,48.40086,0
          22.68474,48.40024,0
          22.68206,48.39672,0
          22.68185,48.39643,0
          22.6814,48.39586,0
          22.68057,48.39473,0
          22.67911,48.39287,0
          22.67583,48.38854,0
          22.67496,48.38742,0
          22.67448,48.38677,0
          22.67435,48.38661,0
          22.6697,48.38043,0
          22.66773,48.37789,0
          22.66743,48.37746,0
          22.66712,48.37705,0
          22.6671,48.37701,0
          22.66224,48.37062,0
          22.66188,48.37012,0
          22.66187,48.37011,0
          22.66028,48.368,0
          22.65897,48.36631,0
          22.65821,48.36529,0
          22.65808,48.3651,0
          22.65723,48.36398,0
          22.65652,48.36301,0
          22.65599,48.36233,0
          22.65457,48.36044,0
          22.65296,48.35837,0
          22.64974,48.35413,0
          22.64775,48.35146,0
          22.64762,48.3513,0
          22.63812,48.33877,0
          22.63782,48.3384,0
          22.63759,48.33809,0
          22.6375,48.33794,0
          22.63742,48.33782,0
          22.63736,48.33769,0
          22.63734,48.33766,0
          22.63733,48.33763,0
          22.63733,48.33722,0
          22.63825,48.31745,0
          22.63826,48.31706,0
          22.6383,48.31653,0
          22.63834,48.31629,0
          22.6384,48.31603,0
          22.63857,48.31544,0
          22.63888,48.31427,0
          22.63903,48.3136,0
          22.63918,48.31266,0
          22.63972,48.3081,0
          22.63973,48.30796,0
          22.63978,48.30756,0
          22.63978,48.30731,0
          22.63976,48.30722,0
          22.6397,48.30703,0
          22.63965,48.30691,0
          22.63953,48.30669,0
          22.631,48.29282,0
          22.6307,48.29237,0
          22.63044,48.29192,0
          22.62373,48.28103,0
          22.62342,48.28055,0
          22.62137,48.27724,0
          22.62115,48.27684,0
          22.62103,48.27658,0
          22.62097,48.27642,0
          22.62094,48.27621,0
          22.62094,48.27606,0
          22.62098,48.2758,0
          22.62129,48.27446,0
          22.62286,48.26807,0
          22.62306,48.26718,0
          22.62547,48.25718,0
          22.62549,48.25707,0
          22.62565,48.25641,0
          22.62573,48.25603,0
          22.6263,48.25364,0
          22.62637,48.25338,0
          22.62643,48.25319,0
          22.62644,48.25309,0
          22.62681,48.2515,0
          22.62686,48.25131,0
          22.62689,48.25122,0
          22.62698,48.25102,0
          22.62713,48.2508,0
          22.63022,48.24668,0
          22.63024,48.24666,0
          22.63794,48.23652,0
          22.63848,48.23578,0
          22.64194,48.23122,0
          22.64241,48.23057,0
          22.64251,48.23039,0
          22.64253,48.23031,0
          22.64258,48.23016,0
          22.64276,48.22933,0
          22.64284,48.22905,0
          22.64288,48.22896,0
          22.64296,48.22881,0
          22.64306,48.22865,0
          22.64312,48.22857,0
          22.64324,48.22843,0
          22.64332,48.22837,0
          22.64353,48.22819,0
          22.64408,48.22776,0
          22.64417,48.22768,0
          22.64422,48.22765,0
          22.64426,48.22762,0
          22.6444,48.22748,0
          22.64448,48.22736,0
          22.64449,48.22731,0
          22.6445,48.22722,0
          22.6445,48.22718,0
          22.64448,48.22706,0
          22.64445,48.22698,0
          22.64445,48.22697,0
          22.64434,48.22676,0
          22.64373,48.22583,0
          22.64371,48.22579,0
          22.64363,48.22566,0
          22.6436,48.22563,0
          22.6421,48.22332,0
          22.6421,48.2233,0
          22.64203,48.2232,0
          22.64198,48.2231,0
          22.64196,48.22303,0
          22.64195,48.22287,0
          22.64195,48.22281,0
          22.64196,48.22276,0
          22.64205,48.22255,0
          22.6421,48.22245,0
          22.64218,48.22232,0
          22.64252,48.22181,0
          22.64297,48.2211,0
          22.64352,48.22027,0
          22.64619,48.21604,0
          22.64626,48.21592,0
          22.64812,48.21301,0
          22.64831,48.21267,0
          22.64834,48.2126,0
          22.64836,48.21253,0
          22.64837,48.21244,0
          22.64837,48.21232,0
          22.64835,48.21214,0
          22.64831,48.21201,0
          22.64812,48.21171,0
          22.64764,48.21105,0
          22.64883,48.21074,0
          22.64893,48.21072,0
          22.64908,48.21068,0
          22.6492,48.21063,0
          22.64931,48.21057,0
          22.64938,48.21054,0
        </coordinates>
      </LineString>
    </Placemark>
    <Placemark>
      <name>ЦНАП с.Поляна, село, вул. Духновича, Поляна, Закарпатська область</name>
      <styleUrl>#icon-1899-DB4436-nodesc</styleUrl>
      <Point>
        <coordinates>
          22.9668768,48.6211963,0
        </coordinates>
      </Point>
    </Placemark>
    <Placemark>
      <name>Державний термальний басейн Берегово, вулиця Корятовича, Берегове, Закарпатська область</name>
      <styleUrl>#icon-1899-DB4436-nodesc</styleUrl>
      <Point>
        <coordinates>
          22.6493764,48.2105445,0
        </coordinates>
      </Point>
    </Placemark>
  </Document>
</kml>
