<?xml version="1.0" encoding="UTF-8"?>
<kml xmlns="http://www.opengis.net/kml/2.2">
  <Document>
    <name>Маршрути від пункту ЦНАП с.Поляна, село, вул. Духновича, Поляна, Закарпатська область до пункту Замок «Сент-Міклош» (Чинадіївський), вулиця Волошина, Чинадійово, Закарпатська область</name>
    <Style id="icon-1899-DB4436-nodesc-normal">
      <IconStyle>
        <color>ff3644db</color>
        <scale>1</scale>
        <Icon>
          <href>https://www.gstatic.com/mapspro/images/stock/503-wht-blank_maps.png</href>
        </Icon>
        <hotSpot x="32" xunits="pixels" y="64" yunits="insetPixels"/>
      </IconStyle>
      <LabelStyle>
        <scale>0</scale>
      </LabelStyle>
      <BalloonStyle>
        <text><![CDATA[<h3>$[name]</h3>]]></text>
      </BalloonStyle>
    </Style>
    <Style id="icon-1899-DB4436-nodesc-highlight">
      <IconStyle>
        <color>ff3644db</color>
        <scale>1</scale>
        <Icon>
          <href>https://www.gstatic.com/mapspro/images/stock/503-wht-blank_maps.png</href>
        </Icon>
        <hotSpot x="32" xunits="pixels" y="64" yunits="insetPixels"/>
      </IconStyle>
      <LabelStyle>
        <scale>1</scale>
      </LabelStyle>
      <BalloonStyle>
        <text><![CDATA[<h3>$[name]</h3>]]></text>
      </BalloonStyle>
    </Style>
    <StyleMap id="icon-1899-DB4436-nodesc">
      <Pair>
        <key>normal</key>
        <styleUrl>#icon-1899-DB4436-nodesc-normal</styleUrl>
      </Pair>
      <Pair>
        <key>highlight</key>
        <styleUrl>#icon-1899-DB4436-nodesc-highlight</styleUrl>
      </Pair>
    </StyleMap>
    <Style id="line-1267FF-5000-nodesc-normal">
      <LineStyle>
        <color>ffff6712</color>
        <width>5</width>
      </LineStyle>
      <BalloonStyle>
        <text><![CDATA[<h3>$[name]</h3>]]></text>
      </BalloonStyle>
    </Style>
    <Style id="line-1267FF-5000-nodesc-highlight">
      <LineStyle>
        <color>ffff6712</color>
        <width>7.5</width>
      </LineStyle>
      <BalloonStyle>
        <text><![CDATA[<h3>$[name]</h3>]]></text>
      </BalloonStyle>
    </Style>
    <StyleMap id="line-1267FF-5000-nodesc">
      <Pair>
        <key>normal</key>
        <styleUrl>#line-1267FF-5000-nodesc-normal</styleUrl>
      </Pair>
      <Pair>
        <key>highlight</key>
        <styleUrl>#line-1267FF-5000-nodesc-highlight</styleUrl>
      </Pair>
    </StyleMap>
    <Placemark>
      <name>Маршрути від пункту ЦНАП с.Поляна, село, вул. Духновича, Поляна, Закарпатська область до пункту Замок «Сент-Міклош» (Чинадіївський), вулиця Волошина, Чинадійово, Закарпатська область</name>
      <styleUrl>#line-1267FF-5000-nodesc</styleUrl>
      <LineString>
        <tessellate>1</tessellate>
        <coordinates>
          22.96688,48.6212,0
          22.96688,48.62112,0
          22.96688,48.62108,0
          22.96688,48.62104,0
          22.96688,48.62101,0
          22.96686,48.62093,0
          22.96685,48.62088,0
          22.96671,48.62056,0
          22.96659,48.62031,0
          22.96631,48.6197,0
          22.96609,48.61924,0
          22.96582,48.61866,0
          22.96546,48.61789,0
          22.96542,48.6178,0
          22.96535,48.61763,0
          22.9652,48.61729,0
          22.96488,48.6166,0
          22.9648,48.61642,0
          22.96472,48.61625,0
          22.96457,48.61591,0
          22.96433,48.61539,0
          22.96425,48.61522,0
          22.96403,48.61473,0
          22.96402,48.6147,0
          22.96395,48.61453,0
          22.96379,48.61418,0
          22.96354,48.61359,0
          22.9634,48.61337,0
          22.96338,48.61333,0
          22.9633,48.61319,0
          22.96328,48.61316,0
          22.9632,48.61302,0
          22.96319,48.61297,0
          22.96319,48.61293,0
          22.9632,48.6129,0
          22.96325,48.61279,0
          22.96333,48.61268,0
          22.96334,48.61265,0
          22.96334,48.61259,0
          22.96334,48.61256,0
          22.96331,48.61251,0
          22.96329,48.61248,0
          22.96328,48.61245,0
          22.96317,48.61232,0
          22.96305,48.61216,0
          22.96305,48.61215,0
          22.96296,48.612,0
          22.96296,48.61199,0
          22.96289,48.61184,0
          22.96286,48.61174,0
          22.96284,48.61164,0
          22.96282,48.61148,0
          22.96278,48.61112,0
          22.96278,48.61097,0
          22.96282,48.61064,0
          22.96283,48.61056,0
          22.96286,48.61038,0
          22.96293,48.60998,0
          22.96296,48.60966,0
          22.96297,48.60961,0
          22.963,48.60942,0
          22.96304,48.60931,0
          22.96306,48.60928,0
          22.96313,48.60914,0
          22.96323,48.609,0
          22.96325,48.60898,0
          22.96337,48.60883,0
          22.96362,48.60858,0
          22.96385,48.60838,0
          22.9645,48.6078,0
          22.96466,48.60766,0
          22.96547,48.60693,0
          22.96563,48.60679,0
          22.96579,48.60664,0
          22.96645,48.60607,0
          22.96679,48.60579,0
          22.96712,48.6055,0
          22.96727,48.60537,0
          22.96777,48.60493,0
          22.9679,48.60481,0
          22.96794,48.60477,0
          22.96798,48.60471,0
          22.96799,48.60468,0
          22.96801,48.60456,0
          22.96802,48.6045,0
          22.96805,48.60445,0
          22.96808,48.60439,0
          22.9682,48.60426,0
          22.96839,48.60416,0
          22.96864,48.60402,0
          22.96874,48.60396,0
          22.96892,48.60387,0
          22.969,48.60381,0
          22.96917,48.60367,0
          22.96941,48.60346,0
          22.96957,48.60331,0
          22.96967,48.60322,0
          22.96972,48.60317,0
          22.97,48.60286,0
          22.97015,48.60271,0
          22.9702,48.60265,0
          22.97027,48.60255,0
          22.97033,48.60246,0
          22.97037,48.60238,0
          22.97042,48.60227,0
          22.97043,48.60221,0
          22.97048,48.60202,0
          22.97048,48.60167,0
          22.97048,48.60149,0
          22.97049,48.60142,0
          22.97045,48.60095,0
          22.97043,48.60065,0
          22.97042,48.59997,0
          22.97043,48.59967,0
          22.97046,48.59951,0
          22.97049,48.59935,0
          22.97059,48.59898,0
          22.9711,48.59726,0
          22.97115,48.59708,0
          22.9712,48.59691,0
          22.97131,48.59655,0
          22.97156,48.59567,0
          22.97176,48.59496,0
          22.9719,48.59449,0
          22.97192,48.59443,0
          22.97214,48.59363,0
          22.97216,48.59355,0
          22.9724,48.59276,0
          22.97252,48.59231,0
          22.97254,48.59222,0
          22.97256,48.59211,0
          22.97257,48.59199,0
          22.97258,48.59195,0
          22.97258,48.59191,0
          22.97257,48.59181,0
          22.97257,48.59174,0
          22.97255,48.59165,0
          22.97252,48.59149,0
          22.97245,48.59115,0
          22.97239,48.59088,0
          22.97231,48.59048,0
          22.97221,48.58996,0
          22.97218,48.58983,0
          22.97205,48.58912,0
          22.97205,48.58911,0
          22.97184,48.58826,0
          22.9718,48.58805,0
          22.97169,48.58751,0
          22.97163,48.58724,0
          22.97147,48.58649,0
          22.97146,48.58645,0
          22.97134,48.5859,0
          22.97117,48.58501,0
          22.97095,48.58412,0
          22.97088,48.5838,0
          22.97084,48.58362,0
          22.97079,48.58336,0
          22.9706,48.58255,0
          22.9704,48.58179,0
          22.97026,48.58126,0
          22.97006,48.58051,0
          22.97,48.58019,0
          22.9699,48.5797,0
          22.96976,48.57914,0
          22.96963,48.57884,0
          22.96961,48.5788,0
          22.9695,48.57866,0
          22.96939,48.57857,0
          22.9686,48.57793,0
          22.96842,48.57769,0
          22.96826,48.57724,0
          22.96819,48.57692,0
          22.96818,48.57685,0
          22.96816,48.5761,0
          22.96816,48.57606,0
          22.96816,48.57588,0
          22.96816,48.5757,0
          22.96815,48.57539,0
          22.96824,48.5751,0
          22.96828,48.57499,0
          22.96846,48.57442,0
          22.96853,48.57411,0
          22.9685,48.57387,0
          22.96833,48.57359,0
          22.96753,48.57233,0
          22.96733,48.57203,0
          22.96678,48.57131,0
          22.96675,48.57127,0
          22.96595,48.5702,0
          22.96562,48.56976,0
          22.96497,48.56891,0
          22.96451,48.56827,0
          22.96423,48.56792,0
          22.96375,48.56728,0
          22.96349,48.56696,0
          22.96345,48.56692,0
          22.96341,48.56686,0
          22.96336,48.56682,0
          22.96332,48.56678,0
          22.9633,48.56676,0
          22.96328,48.56674,0
          22.96326,48.56673,0
          22.96324,48.56671,0
          22.96321,48.5667,0
          22.96319,48.56668,0
          22.96317,48.56667,0
          22.96315,48.56665,0
          22.96313,48.56664,0
          22.9631,48.56662,0
          22.96308,48.56661,0
          22.96307,48.5666,0
          22.96304,48.56659,0
          22.96303,48.56658,0
          22.96301,48.56657,0
          22.96297,48.56655,0
          22.9629,48.56652,0
          22.96283,48.56648,0
          22.96269,48.56642,0
          22.96241,48.56628,0
          22.96213,48.56615,0
          22.96177,48.56595,0
          22.96122,48.56562,0
          22.96116,48.56559,0
          22.96058,48.56521,0
          22.96039,48.56508,0
          22.96034,48.56506,0
          22.95928,48.56438,0
          22.95882,48.56409,0
          22.95862,48.56396,0
          22.95843,48.56384,0
          22.95783,48.56345,0
          22.95726,48.56308,0
          22.95643,48.56254,0
          22.95527,48.56179,0
          22.95516,48.56175,0
          22.95499,48.56167,0
          22.95465,48.56144,0
          22.95455,48.56137,0
          22.95393,48.56098,0
          22.95386,48.56095,0
          22.95352,48.56078,0
          22.95293,48.56056,0
          22.95179,48.56023,0
          22.95098,48.56,0
          22.95052,48.55987,0
          22.94993,48.5597,0
          22.94934,48.55953,0
          22.94899,48.55942,0
          22.94838,48.55923,0
          22.94764,48.55898,0
          22.94705,48.55877,0
          22.94684,48.5587,0
          22.94611,48.55843,0
          22.94562,48.55826,0
          22.94538,48.55817,0
          22.94531,48.55814,0
          22.94515,48.55808,0
          22.94492,48.55798,0
          22.94468,48.55788,0
          22.94416,48.55762,0
          22.94369,48.55738,0
          22.94324,48.55717,0
          22.94264,48.55693,0
          22.94201,48.55672,0
          22.94137,48.55651,0
          22.94099,48.55639,0
          22.94075,48.55631,0
          22.9406,48.55627,0
          22.9405,48.55624,0
          22.94008,48.55612,0
          22.93945,48.55596,0
          22.93885,48.55584,0
          22.93872,48.55579,0
          22.93848,48.55572,0
          22.93838,48.55568,0
          22.93824,48.55562,0
          22.93802,48.55552,0
          22.93795,48.55549,0
          22.93781,48.55541,0
          22.93761,48.55529,0
          22.93756,48.55525,0
          22.93742,48.55516,0
          22.93722,48.55502,0
          22.93705,48.55489,0
          22.93687,48.55477,0
          22.93687,48.55476,0
          22.93649,48.55446,0
          22.93617,48.55418,0
          22.93602,48.55406,0
          22.93581,48.55389,0
          22.9355,48.55364,0
          22.9353,48.55348,0
          22.93516,48.55336,0
          22.93489,48.55314,0
          22.93449,48.55281,0
          22.93431,48.55266,0
          22.93398,48.55238,0
          22.93381,48.55224,0
          22.93365,48.5521,0
          22.9331,48.55164,0
          22.93297,48.55153,0
          22.93281,48.55138,0
          22.93262,48.55121,0
          22.93225,48.55081,0
          22.93222,48.55078,0
          22.93197,48.55048,0
          22.93183,48.55031,0
          22.93166,48.55009,0
          22.93157,48.54999,0
          22.93133,48.54969,0
          22.93132,48.54967,0
          22.93107,48.54935,0
          22.93096,48.54921,0
          22.9307,48.54887,0
          22.93063,48.54876,0
          22.93058,48.54871,0
          22.93046,48.54855,0
          22.93034,48.54839,0
          22.9303,48.54834,0
          22.93022,48.54823,0
          22.93,48.54795,0
          22.92975,48.54758,0
          22.92963,48.54741,0
          22.9296,48.54736,0
          22.92953,48.54725,0
          22.92933,48.54691,0
          22.92929,48.54684,0
          22.92925,48.54674,0
          22.92911,48.54644,0
          22.92905,48.54629,0
          22.929,48.54604,0
          22.92899,48.546,0
          22.92897,48.54574,0
          22.929,48.54541,0
          22.92904,48.54513,0
          22.92914,48.54478,0
          22.92916,48.54471,0
          22.92933,48.54426,0
          22.9294,48.54408,0
          22.92944,48.54397,0
          22.92946,48.54391,0
          22.92949,48.5438,0
          22.92951,48.54373,0
          22.92953,48.54366,0
          22.92956,48.54351,0
          22.92957,48.54339,0
          22.92958,48.54337,0
          22.92959,48.54322,0
          22.92959,48.54319,0
          22.92961,48.54303,0
          22.92961,48.54301,0
          22.92961,48.54294,0
          22.92962,48.54284,0
          22.92962,48.54283,0
          22.92961,48.54273,0
          22.9296,48.54257,0
          22.92958,48.54248,0
          22.92955,48.54232,0
          22.92949,48.5421,0
          22.92941,48.54186,0
          22.92939,48.54177,0
          22.92937,48.54172,0
          22.9293,48.54154,0
          22.92925,48.54143,0
          22.92921,48.54134,0
          22.92911,48.54115,0
          22.929,48.54099,0
          22.92891,48.54088,0
          22.92882,48.54076,0
          22.92881,48.54075,0
          22.9287,48.54063,0
          22.92855,48.54047,0
          22.92832,48.54025,0
          22.92819,48.54013,0
          22.92805,48.54001,0
          22.92788,48.53987,0
          22.92774,48.53976,0
          22.92761,48.53967,0
          22.92748,48.53958,0
          22.92721,48.53942,0
          22.92707,48.53935,0
          22.92666,48.53915,0
          22.92658,48.53911,0
          22.92643,48.53904,0
          22.92606,48.53888,0
          22.92539,48.53861,0
          22.92529,48.53857,0
          22.92505,48.53847,0
          22.92482,48.53838,0
          22.92481,48.53837,0
          22.92459,48.53829,0
          22.92436,48.53819,0
          22.92355,48.53788,0
          22.92319,48.53773,0
          22.92273,48.53755,0
          22.92272,48.53755,0
          22.92258,48.53749,0
          22.92249,48.53746,0
          22.92249,48.53745,0
          22.92226,48.53736,0
          22.922,48.53726,0
          22.92143,48.53704,0
          22.92104,48.53689,0
          22.92037,48.53664,0
          22.92014,48.53655,0
          22.92013,48.53654,0
          22.91957,48.53636,0
          22.91933,48.53628,0
          22.91903,48.5362,0
          22.91888,48.53617,0
          22.91878,48.53614,0
          22.91837,48.53607,0
          22.91815,48.53604,0
          22.91792,48.53601,0
          22.91764,48.53598,0
          22.91729,48.53596,0
          22.91712,48.53595,0
          22.91672,48.53593,0
          22.91627,48.53593,0
          22.91605,48.53594,0
          22.91593,48.53594,0
          22.91589,48.53595,0
          22.91556,48.53596,0
          22.91527,48.53598,0
          22.915,48.53601,0
          22.91465,48.53606,0
          22.91443,48.5361,0
          22.9141,48.53618,0
          22.9138,48.53625,0
          22.91356,48.53632,0
          22.91333,48.5364,0
          22.91292,48.53655,0
          22.91215,48.53684,0
          22.9115,48.5371,0
          22.91058,48.53746,0
          22.91008,48.53765,0
          22.90978,48.53776,0
          22.90963,48.5378,0
          22.90952,48.53784,0
          22.90938,48.53788,0
          22.90935,48.53789,0
          22.90913,48.53794,0
          22.90902,48.53797,0
          22.90889,48.538,0
          22.90887,48.538,0
          22.90866,48.53805,0
          22.90854,48.53807,0
          22.90835,48.5381,0
          22.9082,48.53812,0
          22.90808,48.53813,0
          22.90807,48.53814,0
          22.9079,48.53815,0
          22.90781,48.53815,0
          22.90768,48.53816,0
          22.90744,48.53817,0
          22.9072,48.53816,0
          22.907,48.53815,0
          22.90622,48.5381,0
          22.90591,48.53806,0
          22.90569,48.53804,0
          22.90552,48.53801,0
          22.9049,48.53792,0
          22.90355,48.5377,0
          22.90224,48.53748,0
          22.90171,48.5374,0
          22.90065,48.53723,0
          22.90039,48.53718,0
          22.89881,48.53692,0
          22.8967,48.53658,0
          22.89604,48.53647,0
          22.89596,48.53646,0
          22.89536,48.53636,0
          22.89432,48.5362,0
          22.89411,48.53616,0
          22.89359,48.53608,0
          22.89314,48.53599,0
          22.89306,48.53598,0
          22.89284,48.53594,0
          22.8928,48.53592,0
          22.89261,48.53588,0
          22.89255,48.53586,0
          22.89243,48.53581,0
          22.89232,48.53576,0
          22.89224,48.53572,0
          22.89189,48.53554,0
          22.89185,48.53551,0
          22.89139,48.53522,0
          22.89095,48.5349,0
          22.89094,48.5349,0
          22.89076,48.53476,0
          22.89055,48.53461,0
          22.89026,48.53443,0
          22.8898,48.53416,0
          22.88947,48.53397,0
          22.8892,48.53382,0
          22.88885,48.53361,0
          22.88878,48.53356,0
          22.88867,48.53349,0
          22.88849,48.53336,0
          22.88834,48.53324,0
          22.88819,48.53311,0
          22.88803,48.53294,0
          22.88788,48.53275,0
          22.88784,48.53269,0
          22.88759,48.53234,0
          22.88745,48.53217,0
          22.88729,48.53199,0
          22.88701,48.5316,0
          22.88671,48.5313,0
          22.88656,48.53115,0
          22.88611,48.5307,0
          22.88521,48.5298,0
          22.88407,48.52866,0
          22.8837,48.52829,0
          22.88313,48.52773,0
          22.88291,48.5275,0
          22.88273,48.52735,0
          22.88237,48.52699,0
          22.88212,48.52675,0
          22.88191,48.52654,0
          22.88176,48.5264,0
          22.8816,48.52625,0
          22.88148,48.52613,0
          22.88145,48.5261,0
          22.88085,48.5255,0
          22.88069,48.52535,0
          22.88054,48.5252,0
          22.88045,48.52511,0
          22.88039,48.52505,0
          22.8797,48.52439,0
          22.87962,48.52431,0
          22.87933,48.524,0
          22.87913,48.52374,0
          22.87899,48.52362,0
          22.8787,48.5234,0
          22.87844,48.5232,0
          22.87828,48.52309,0
          22.87819,48.52303,0
          22.878,48.52292,0
          22.87787,48.52285,0
          22.87771,48.52277,0
          22.87751,48.52265,0
          22.87741,48.5226,0
          22.8773,48.52254,0
          22.87707,48.52241,0
          22.87629,48.522,0
          22.87582,48.52176,0
          22.87561,48.52165,0
          22.8754,48.52154,0
          22.87539,48.52154,0
          22.87519,48.52144,0
          22.8751,48.52139,0
          22.87489,48.52128,0
          22.87467,48.52117,0
          22.87444,48.52105,0
          22.87332,48.52046,0
          22.87302,48.52075,0
          22.87285,48.52091,0
          22.87276,48.52099,0
          22.87274,48.52101,0
          22.87235,48.52133,0
          22.87222,48.52144,0
          22.8719,48.52171,0
          22.8717,48.52187,0
          22.87159,48.52194,0
          22.87155,48.52195,0
          22.8715,48.52196,0
          22.87143,48.52196,0
          22.87132,48.52196,0
          22.87122,48.52194,0
          22.87084,48.52187,0
          22.87068,48.52185,0
          22.87019,48.52178,0
          22.86971,48.52167,0
          22.86945,48.52163,0
          22.86939,48.52163,0
          22.86931,48.52165,0
          22.86925,48.52167,0
          22.86914,48.52173,0
          22.86906,48.52178,0
          22.86926,48.52194,0
          22.86935,48.52201,0
          22.86944,48.52207,0
          22.86955,48.52213,0
          22.86964,48.52219,0
          22.86969,48.52223,0
          22.86972,48.52227,0
          22.86973,48.52231,0
          22.86975,48.52241,0
          22.8698,48.52253,0
          22.86982,48.52258,0
          22.86983,48.52271,0
          22.86987,48.52279,0
          22.8699,48.52284,0
          22.86993,48.52286,0
          22.86995,48.52286,0
          22.86999,48.52287,0
          22.87005,48.52288,0
          22.87013,48.52289,0
          22.87019,48.52291,0
          22.87027,48.52293,0
          22.87036,48.52295,0
          22.87058,48.52304,0
          22.87066,48.5231,0
          22.87085,48.52323,0
          22.87089,48.52326,0
          22.87093,48.52328,0
          22.87096,48.52328,0
          22.87099,48.52329,0
          22.8711,48.52329,0
          22.87114,48.52329,0
          22.87122,48.52327,0
          22.87128,48.52326,0
          22.87136,48.52325,0
          22.87146,48.52324,0
          22.87154,48.52324,0
          22.87161,48.52324,0
          22.87168,48.52324,0
          22.87174,48.52325,0
          22.87178,48.52325,0
          22.87185,48.52326,0
          22.8719,48.52327,0
          22.87191,48.52327,0
          22.87195,48.52327,0
          22.87196,48.52328,0
          22.87197,48.52328,0
          22.87198,48.52329,0
          22.87199,48.5233,0
          22.872,48.52331,0
          22.872,48.52332,0
          22.87199,48.52333,0
          22.87198,48.52335,0
          22.87195,48.52338,0
          22.87191,48.52342,0
          22.87186,48.52346,0
          22.87185,48.52347,0
          22.87183,48.5235,0
          22.87182,48.52352,0
          22.87182,48.52355,0
          22.87182,48.52358,0
          22.87182,48.52361,0
          22.87182,48.52363,0
          22.87184,48.5237,0
          22.87187,48.52374,0
          22.87189,48.52378,0
          22.8719,48.52381,0
          22.87191,48.52384,0
          22.87191,48.52388,0
          22.87191,48.52391,0
          22.87187,48.524,0
          22.87186,48.52401,0
          22.87184,48.52403,0
          22.87183,48.52405,0
          22.87182,48.52407,0
          22.8718,48.5241,0
          22.8718,48.52412,0
          22.87179,48.52416,0
          22.87179,48.52418,0
          22.87182,48.52422,0
          22.87184,48.52424,0
          22.87188,48.52427,0
          22.87196,48.52437,0
          22.87198,48.52439,0
          22.872,48.5244,0
          22.87203,48.52442,0
          22.87206,48.52444,0
          22.87215,48.52447,0
          22.87217,48.52449,0
          22.8722,48.52449,0
          22.8722,48.5245,0
          22.87226,48.5245,0
          22.87231,48.52451,0
          22.87238,48.52452,0
          22.87274,48.52453,0
          22.87301,48.52455,0
          22.87324,48.52456,0
          22.87381,48.52463,0
          22.87406,48.52467,0
          22.87408,48.52496,0
          22.87406,48.52467,0
          22.87381,48.52463,0
          22.87324,48.52456,0
          22.87301,48.52455,0
          22.87274,48.52453,0
          22.87238,48.52452,0
          22.87231,48.52451,0
          22.87226,48.5245,0
          22.8722,48.5245,0
          22.8722,48.52449,0
          22.87217,48.52449,0
          22.87215,48.52447,0
          22.87206,48.52444,0
          22.87203,48.52442,0
          22.872,48.5244,0
          22.87198,48.52439,0
          22.87196,48.52437,0
          22.87188,48.52427,0
          22.87184,48.52424,0
          22.87182,48.52422,0
          22.87179,48.52418,0
          22.87179,48.52416,0
          22.8718,48.52412,0
          22.8718,48.5241,0
          22.87182,48.52407,0
          22.87183,48.52405,0
          22.87184,48.52403,0
          22.87186,48.52401,0
          22.87187,48.524,0
          22.87191,48.52391,0
          22.87191,48.52388,0
          22.87191,48.52384,0
          22.8719,48.52381,0
          22.87189,48.52378,0
          22.87187,48.52374,0
          22.87184,48.5237,0
          22.87182,48.52363,0
          22.87182,48.52361,0
          22.87182,48.52358,0
          22.87182,48.52355,0
          22.87182,48.52352,0
          22.87183,48.5235,0
          22.87185,48.52347,0
          22.87186,48.52346,0
          22.87191,48.52342,0
          22.87195,48.52338,0
          22.87198,48.52335,0
          22.87199,48.52333,0
          22.872,48.52332,0
          22.872,48.52331,0
          22.87199,48.5233,0
          22.87198,48.52329,0
          22.87197,48.52328,0
          22.87196,48.52328,0
          22.87195,48.52327,0
          22.87191,48.52327,0
          22.8719,48.52327,0
          22.87185,48.52326,0
          22.87178,48.52325,0
          22.87174,48.52325,0
          22.87168,48.52324,0
          22.87161,48.52324,0
          22.87154,48.52324,0
          22.87146,48.52324,0
          22.87136,48.52325,0
          22.87128,48.52326,0
          22.87122,48.52327,0
          22.87114,48.52329,0
          22.8711,48.52329,0
          22.87099,48.52329,0
          22.87096,48.52328,0
          22.87093,48.52328,0
          22.87089,48.52326,0
          22.87085,48.52323,0
          22.87066,48.5231,0
          22.87058,48.52304,0
          22.87036,48.52295,0
          22.87027,48.52293,0
          22.87019,48.52291,0
          22.87013,48.52289,0
          22.87005,48.52288,0
          22.86999,48.52287,0
          22.86995,48.52286,0
          22.86993,48.52286,0
          22.8699,48.52284,0
          22.86987,48.52279,0
          22.86983,48.52271,0
          22.86982,48.52258,0
          22.8698,48.52253,0
          22.86975,48.52241,0
          22.86973,48.52231,0
          22.86972,48.52227,0
          22.86969,48.52223,0
          22.86964,48.52219,0
          22.86955,48.52213,0
          22.86944,48.52207,0
          22.86935,48.52201,0
          22.86926,48.52194,0
          22.86906,48.52178,0
          22.86914,48.52173,0
          22.86925,48.52167,0
          22.86931,48.52165,0
          22.86939,48.52163,0
          22.86945,48.52163,0
          22.86971,48.52167,0
          22.87019,48.52178,0
          22.87068,48.52185,0
          22.87084,48.52187,0
          22.87122,48.52194,0
          22.87132,48.52196,0
          22.87143,48.52196,0
          22.8715,48.52196,0
          22.87155,48.52195,0
          22.87159,48.52194,0
          22.8717,48.52187,0
          22.8719,48.52171,0
          22.87222,48.52144,0
          22.87235,48.52133,0
          22.87274,48.52101,0
          22.87276,48.52099,0
          22.87285,48.52091,0
          22.87302,48.52075,0
          22.87332,48.52046,0
          22.87313,48.52038,0
          22.87271,48.52016,0
          22.87187,48.51968,0
          22.87166,48.51954,0
          22.87151,48.51944,0
          22.87081,48.51895,0
          22.87051,48.51873,0
          22.86998,48.51835,0
          22.86904,48.51767,0
          22.86776,48.51673,0
          22.86757,48.51659,0
          22.86615,48.51556,0
          22.86594,48.5154,0
          22.86505,48.51475,0
          22.86482,48.51457,0
          22.86334,48.51351,0
          22.86275,48.51309,0
          22.86163,48.51227,0
          22.8601,48.51117,0
          22.8595,48.51072,0
          22.85931,48.51059,0
          22.8588,48.51021,0
          22.85858,48.51006,0
          22.85675,48.50872,0
          22.85639,48.50846,0
          22.8562,48.50833,0
          22.85529,48.50766,0
          22.85511,48.50753,0
          22.85492,48.5074,0
          22.85476,48.50728,0
          22.85456,48.50713,0
          22.85346,48.50633,0
          22.85334,48.50624,0
          22.85328,48.5062,0
          22.8531,48.50607,0
          22.85255,48.50567,0
          22.85237,48.50554,0
          22.85218,48.5054,0
          22.852,48.50527,0
          22.85171,48.50506,0
          22.85108,48.50461,0
          22.85097,48.50452,0
          22.85072,48.50434,0
          22.85054,48.50421,0
          22.84989,48.50374,0
          22.8498,48.50368,0
          22.84919,48.50324,0
          22.8492,48.50324,0
          22.8492,48.50323,0
          22.8492,48.50322,0
          22.8492,48.5032,0
          22.84919,48.50317,0
          22.84896,48.50268,0
          22.84871,48.50217,0
          22.84861,48.5019,0
          22.84747,48.49961,0
          22.84735,48.49931,0
          22.84731,48.49921,0
          22.84686,48.49833,0
          22.8467,48.49789,0
          22.84644,48.49735,0
          22.84612,48.49666,0
          22.84575,48.49586,0
          22.84546,48.4952,0
          22.84527,48.49474,0
          22.84511,48.49443,0
          22.84501,48.49423,0
          22.8448,48.49374,0
          22.84469,48.49348,0
          22.84461,48.49334,0
          22.84453,48.49323,0
          22.84448,48.49316,0
          22.84423,48.49298,0
          22.84378,48.49271,0
          22.8437,48.49267,0
          22.84358,48.4926,0
          22.84317,48.49236,0
          22.84303,48.49228,0
          22.84275,48.49213,0
          22.84119,48.49127,0
          22.84087,48.49108,0
          22.84029,48.49073,0
          22.83934,48.49021,0
          22.8386,48.48983,0
          22.83833,48.48975,0
          22.83808,48.48971,0
          22.83781,48.48967,0
          22.83769,48.48966,0
          22.83758,48.48964,0
          22.8375,48.48963,0
          22.83742,48.48959,0
          22.83734,48.48956,0
          22.8373,48.48952,0
          22.83722,48.4894,0
          22.83713,48.48917,0
          22.83705,48.48898,0
          22.83695,48.48884,0
          22.83673,48.4887,0
          22.83561,48.48808,0
          22.83541,48.48796,0
          22.83353,48.48693,0
          22.83236,48.48626,0
          22.83193,48.48601,0
          22.83135,48.48568,0
          22.83083,48.48548,0
          22.83079,48.48547,0
        </coordinates>
      </LineString>
    </Placemark>
    <Placemark>
      <name>ЦНАП с.Поляна, село, вул. Духновича, Поляна, Закарпатська область</name>
      <styleUrl>#icon-1899-DB4436-nodesc</styleUrl>
      <Point>
        <coordinates>
          22.9668768,48.6211963,0
        </coordinates>
      </Point>
    </Placemark>
    <Placemark>
      <name>Замок Шенборнів, Е50, Карпати, Закарпатська область</name>
      <styleUrl>#icon-1899-DB4436-nodesc</styleUrl>
      <Point>
        <coordinates>
          22.8740834,48.5249563,0
        </coordinates>
      </Point>
    </Placemark>
    <Placemark>
      <name>Замок «Сент-Міклош» (Чинадіївський), вулиця Волошина, Чинадійово, Закарпатська область</name>
      <styleUrl>#icon-1899-DB4436-nodesc</styleUrl>
      <Point>
        <coordinates>
          22.8307943,48.4854698,0
        </coordinates>
      </Point>
    </Placemark>
  </Document>
</kml>
