<?xml version="1.0" encoding="UTF-8"?>
<kml xmlns="http://www.opengis.net/kml/2.2">
  <Document>
    <name>Маршрути від пункту Поляна, Закарпатська область до пункту Деца у Нотаря, вулиця Карпатської України, Ужгород, Закарпатська область</name>
    <Style id="icon-1899-DB4436-nodesc-normal">
      <IconStyle>
        <color>ff3644db</color>
        <scale>1</scale>
        <Icon>
          <href>https://www.gstatic.com/mapspro/images/stock/503-wht-blank_maps.png</href>
        </Icon>
        <hotSpot x="32" xunits="pixels" y="64" yunits="insetPixels"/>
      </IconStyle>
      <LabelStyle>
        <scale>0</scale>
      </LabelStyle>
      <BalloonStyle>
        <text><![CDATA[<h3>$[name]</h3>]]></text>
      </BalloonStyle>
    </Style>
    <Style id="icon-1899-DB4436-nodesc-highlight">
      <IconStyle>
        <color>ff3644db</color>
        <scale>1</scale>
        <Icon>
          <href>https://www.gstatic.com/mapspro/images/stock/503-wht-blank_maps.png</href>
        </Icon>
        <hotSpot x="32" xunits="pixels" y="64" yunits="insetPixels"/>
      </IconStyle>
      <LabelStyle>
        <scale>1</scale>
      </LabelStyle>
      <BalloonStyle>
        <text><![CDATA[<h3>$[name]</h3>]]></text>
      </BalloonStyle>
    </Style>
    <StyleMap id="icon-1899-DB4436-nodesc">
      <Pair>
        <key>normal</key>
        <styleUrl>#icon-1899-DB4436-nodesc-normal</styleUrl>
      </Pair>
      <Pair>
        <key>highlight</key>
        <styleUrl>#icon-1899-DB4436-nodesc-highlight</styleUrl>
      </Pair>
    </StyleMap>
    <Style id="line-1267FF-5000-nodesc-normal">
      <LineStyle>
        <color>ffff6712</color>
        <width>5</width>
      </LineStyle>
      <BalloonStyle>
        <text><![CDATA[<h3>$[name]</h3>]]></text>
      </BalloonStyle>
    </Style>
    <Style id="line-1267FF-5000-nodesc-highlight">
      <LineStyle>
        <color>ffff6712</color>
        <width>7.5</width>
      </LineStyle>
      <BalloonStyle>
        <text><![CDATA[<h3>$[name]</h3>]]></text>
      </BalloonStyle>
    </Style>
    <StyleMap id="line-1267FF-5000-nodesc">
      <Pair>
        <key>normal</key>
        <styleUrl>#line-1267FF-5000-nodesc-normal</styleUrl>
      </Pair>
      <Pair>
        <key>highlight</key>
        <styleUrl>#line-1267FF-5000-nodesc-highlight</styleUrl>
      </Pair>
    </StyleMap>
    <Placemark>
      <name>Маршрути від пункту Поляна, Закарпатська область до пункту Деца у Нотаря, вулиця Карпатської України, Ужгород, Закарпатська область</name>
      <styleUrl>#line-1267FF-5000-nodesc</styleUrl>
      <LineString>
        <tessellate>1</tessellate>
        <coordinates>
          22.96255,48.6225,0
          22.96261,48.6225,0
          22.96268,48.62248,0
          22.96319,48.62239,0
          22.96339,48.62232,0
          22.96371,48.62218,0
          22.9638,48.6221,0
          22.96394,48.62196,0
          22.96398,48.62194,0
          22.96404,48.62192,0
          22.96471,48.62178,0
          22.96629,48.62166,0
          22.96683,48.6216,0
          22.96677,48.62191,0
          22.96676,48.622,0
          22.96676,48.62203,0
          22.96677,48.62206,0
          22.96678,48.62212,0
          22.9668,48.62218,0
          22.96683,48.62224,0
          22.96685,48.62227,0
          22.96705,48.62249,0
          22.96735,48.62278,0
          22.96684,48.6229,0
          22.96617,48.62301,0
          22.96596,48.62303,0
          22.96577,48.62308,0
          22.96562,48.62313,0
          22.96556,48.62317,0
          22.96543,48.62324,0
          22.96527,48.62336,0
          22.96526,48.62337,0
          22.96395,48.62429,0
          22.96355,48.62462,0
          22.96315,48.6249,0
          22.96289,48.62502,0
          22.96273,48.62506,0
          22.96268,48.62506,0
          22.96253,48.62509,0
          22.9612,48.62526,0
          22.96112,48.62528,0
          22.95955,48.62545,0
          22.95916,48.62545,0
          22.95851,48.6254,0
          22.958,48.62534,0
          22.95774,48.62527,0
          22.95759,48.62522,0
          22.95703,48.62497,0
          22.95572,48.6243,0
          22.95561,48.62426,0
          22.95555,48.62423,0
          22.95549,48.62421,0
          22.95544,48.62421,0
          22.95537,48.6242,0
          22.9548,48.62422,0
          22.95448,48.62426,0
          22.95429,48.6243,0
          22.95419,48.62434,0
          22.95416,48.62436,0
          22.95388,48.62451,0
          22.95141,48.62602,0
          22.95121,48.62611,0
          22.95103,48.62616,0
          22.95035,48.62626,0
          22.95027,48.62628,0
          22.95011,48.6263,0
          22.94984,48.62637,0
          22.94951,48.62649,0
          22.94825,48.62708,0
          22.94698,48.62771,0
          22.94612,48.62811,0
          22.94567,48.62836,0
          22.94551,48.62847,0
          22.94488,48.62906,0
          22.94473,48.62916,0
          22.94409,48.6295,0
          22.94407,48.6295,0
          22.9439,48.62957,0
          22.94367,48.62964,0
          22.94347,48.62969,0
          22.94275,48.6298,0
          22.94251,48.62987,0
          22.94237,48.62994,0
          22.94223,48.63003,0
          22.94217,48.63009,0
          22.94213,48.63014,0
          22.94209,48.63021,0
          22.94207,48.63027,0
          22.94206,48.63029,0
          22.94205,48.63055,0
          22.94217,48.6317,0
          22.94218,48.63203,0
          22.94217,48.63211,0
          22.94215,48.63218,0
          22.94208,48.6323,0
          22.94203,48.63236,0
          22.94195,48.63243,0
          22.94171,48.63261,0
          22.94129,48.63284,0
          22.9406,48.63325,0
          22.93967,48.63377,0
          22.93899,48.63401,0
          22.93657,48.6346,0
          22.93547,48.63489,0
          22.93545,48.6349,0
          22.93443,48.63515,0
          22.93395,48.63535,0
          22.93179,48.63637,0
          22.93072,48.63677,0
          22.92878,48.63742,0
          22.92817,48.63765,0
          22.92641,48.63847,0
          22.92611,48.63866,0
          22.92598,48.63878,0
          22.92578,48.63901,0
          22.92573,48.6391,0
          22.92564,48.63924,0
          22.92561,48.63926,0
          22.92546,48.63943,0
          22.92502,48.63974,0
          22.9246,48.64011,0
          22.92342,48.64109,0
          22.92304,48.64132,0
          22.92272,48.64149,0
          22.92188,48.6419,0
          22.92185,48.64192,0
          22.92134,48.64213,0
          22.92036,48.6424,0
          22.92,48.64252,0
          22.9198,48.64262,0
          22.91584,48.64565,0
          22.91531,48.64597,0
          22.91385,48.64672,0
          22.91281,48.64734,0
          22.9067,48.65139,0
          22.90518,48.65245,0
          22.90518,48.65246,0
          22.90494,48.6527,0
          22.90368,48.65417,0
          22.9035,48.65445,0
          22.90348,48.65451,0
          22.90331,48.65484,0
          22.90327,48.65489,0
          22.9032,48.65495,0
          22.90316,48.65497,0
          22.90288,48.65505,0
          22.90276,48.65512,0
          22.90233,48.65544,0
          22.90206,48.6556,0
          22.90119,48.65621,0
          22.90092,48.65645,0
          22.90074,48.65669,0
          22.90073,48.6567,0
          22.9005,48.65701,0
          22.90012,48.65744,0
          22.89993,48.65762,0
          22.89989,48.65764,0
          22.89983,48.65768,0
          22.89973,48.65771,0
          22.89958,48.65777,0
          22.89877,48.65796,0
          22.89866,48.658,0
          22.89854,48.65803,0
          22.89821,48.65818,0
          22.89778,48.65847,0
          22.89768,48.65851,0
          22.89509,48.65938,0
          22.89496,48.65939,0
          22.89472,48.65939,0
          22.89458,48.65938,0
          22.89434,48.65941,0
          22.89431,48.65941,0
          22.89419,48.65944,0
          22.89396,48.65955,0
          22.8924,48.66037,0
          22.89229,48.66045,0
          22.89217,48.66055,0
          22.8919,48.66094,0
          22.89172,48.66117,0
          22.89151,48.66138,0
          22.89128,48.66154,0
          22.89092,48.66175,0
          22.88967,48.66237,0
          22.88924,48.66262,0
          22.889,48.66283,0
          22.88883,48.66304,0
          22.88725,48.66448,0
          22.88668,48.66493,0
          22.88531,48.66586,0
          22.88472,48.66638,0
          22.88442,48.66656,0
          22.8834,48.66706,0
          22.88276,48.66751,0
          22.8825,48.66763,0
          22.88231,48.66767,0
          22.88166,48.66774,0
          22.88159,48.66774,0
          22.88094,48.66781,0
          22.87926,48.66805,0
          22.87856,48.66809,0
          22.8783,48.66806,0
          22.87807,48.66801,0
          22.87782,48.66789,0
          22.87752,48.66779,0
          22.87733,48.66775,0
          22.87716,48.66774,0
          22.87699,48.66775,0
          22.87675,48.66779,0
          22.8765,48.66781,0
          22.87626,48.66781,0
          22.87601,48.66778,0
          22.87579,48.66778,0
          22.87569,48.66781,0
          22.8756,48.66783,0
          22.87554,48.66785,0
          22.87553,48.66786,0
          22.87527,48.66799,0
          22.8751,48.66809,0
          22.87506,48.6681,0
          22.875,48.66813,0
          22.87463,48.66818,0
          22.87415,48.66822,0
          22.87326,48.66832,0
          22.87276,48.66836,0
          22.87238,48.66832,0
          22.87168,48.66821,0
          22.87165,48.66821,0
          22.87084,48.66812,0
          22.87057,48.6681,0
          22.87053,48.66809,0
          22.87016,48.66803,0
          22.86996,48.66797,0
          22.86981,48.66791,0
          22.86951,48.66768,0
          22.86931,48.66751,0
          22.86914,48.66733,0
          22.86893,48.66706,0
          22.86889,48.667,0
          22.86879,48.66681,0
          22.86864,48.66643,0
          22.8685,48.66621,0
          22.86845,48.66612,0
          22.86816,48.66577,0
          22.86788,48.66546,0
          22.86774,48.66535,0
          22.86744,48.66515,0
          22.86735,48.66502,0
          22.86731,48.66488,0
          22.86727,48.66479,0
          22.86723,48.66473,0
          22.86718,48.66467,0
          22.86707,48.66459,0
          22.86698,48.66454,0
          22.86689,48.66447,0
          22.86677,48.66435,0
          22.86667,48.66423,0
          22.8665,48.66397,0
          22.86611,48.66343,0
          22.86592,48.66328,0
          22.86578,48.6632,0
          22.86544,48.66309,0
          22.86525,48.66305,0
          22.86484,48.66302,0
          22.86453,48.66296,0
          22.86345,48.66263,0
          22.8632,48.66257,0
          22.86265,48.66247,0
          22.86198,48.66231,0
          22.8614,48.66223,0
          22.86105,48.6622,0
          22.85952,48.66217,0
          22.85948,48.66216,0
          22.85928,48.66214,0
          22.85897,48.66207,0
          22.85895,48.66207,0
          22.85883,48.66204,0
          22.85857,48.66194,0
          22.85788,48.66153,0
          22.85768,48.66145,0
          22.85758,48.66143,0
          22.85746,48.66143,0
          22.85742,48.66145,0
          22.85737,48.6615,0
          22.85736,48.66152,0
          22.85735,48.66156,0
          22.85734,48.66158,0
          22.85734,48.66161,0
          22.85736,48.66165,0
          22.85738,48.66168,0
          22.85752,48.6618,0
          22.8577,48.66191,0
          22.85771,48.66191,0
          22.85791,48.66201,0
          22.85821,48.66211,0
          22.85858,48.66229,0
          22.85878,48.66243,0
          22.85888,48.66251,0
          22.85895,48.66258,0
          22.85905,48.66266,0
          22.85912,48.6627,0
          22.85942,48.66281,0
          22.85955,48.66287,0
          22.85966,48.66294,0
          22.85967,48.66297,0
          22.85968,48.66302,0
          22.85967,48.66308,0
          22.85964,48.66313,0
          22.85961,48.66317,0
          22.85956,48.6632,0
          22.85954,48.6632,0
          22.85944,48.66322,0
          22.85922,48.6632,0
          22.85913,48.66317,0
          22.85902,48.66312,0
          22.85901,48.66312,0
          22.85894,48.66307,0
          22.85875,48.66289,0
          22.85852,48.66254,0
          22.8584,48.66241,0
          22.85825,48.66234,0
          22.85804,48.66231,0
          22.85798,48.66231,0
          22.85721,48.6621,0
          22.85705,48.66202,0
          22.85702,48.66201,0
          22.85666,48.6618,0
          22.85665,48.66179,0
          22.85652,48.66171,0
          22.8564,48.66165,0
          22.85621,48.66157,0
          22.85596,48.6615,0
          22.85591,48.66148,0
          22.85539,48.66144,0
          22.85506,48.66144,0
          22.85493,48.66142,0
          22.85485,48.6614,0
          22.85419,48.66112,0
          22.85418,48.66112,0
          22.85409,48.66109,0
          22.85397,48.66107,0
          22.85373,48.66107,0
          22.85315,48.66119,0
          22.85246,48.6614,0
          22.85228,48.66147,0
          22.85207,48.66152,0
          22.8519,48.66153,0
          22.85133,48.66152,0
          22.85108,48.66154,0
          22.851,48.66154,0
          22.85071,48.66151,0
          22.8504,48.66144,0
          22.85029,48.66143,0
          22.85021,48.66143,0
          22.85008,48.66145,0
          22.85003,48.66148,0
          22.85,48.66149,0
          22.8498,48.66162,0
          22.84957,48.66179,0
          22.84944,48.66186,0
          22.84928,48.6619,0
          22.84922,48.66189,0
          22.84909,48.66188,0
          22.84899,48.66186,0
          22.84894,48.66183,0
          22.84889,48.66181,0
          22.84873,48.66171,0
          22.84865,48.66167,0
          22.84837,48.66147,0
          22.84821,48.6613,0
          22.84817,48.66128,0
          22.84813,48.66125,0
          22.84811,48.66124,0
          22.84806,48.66124,0
          22.84802,48.66125,0
          22.84796,48.66128,0
          22.84795,48.66129,0
          22.84794,48.66132,0
          22.84794,48.66136,0
          22.84795,48.66138,0
          22.84801,48.66144,0
          22.84832,48.66166,0
          22.84841,48.66175,0
          22.84849,48.66186,0
          22.84866,48.66218,0
          22.84871,48.66223,0
          22.84886,48.66231,0
          22.84898,48.66235,0
          22.84912,48.66238,0
          22.84915,48.66239,0
          22.84923,48.66239,0
          22.84939,48.66237,0
          22.84943,48.66236,0
          22.84997,48.66215,0
          22.85012,48.66212,0
          22.85017,48.66212,0
          22.85022,48.66213,0
          22.85048,48.66225,0
          22.85057,48.6623,0
          22.85072,48.66244,0
          22.85073,48.66248,0
          22.85073,48.66253,0
          22.85072,48.66257,0
          22.85067,48.66265,0
          22.85057,48.66278,0
          22.85044,48.6629,0
          22.84998,48.66315,0
          22.84968,48.66327,0
          22.84866,48.66358,0
          22.84835,48.6637,0
          22.84817,48.66378,0
          22.84803,48.66388,0
          22.84786,48.66407,0
          22.84731,48.66479,0
          22.84721,48.66485,0
          22.84708,48.66491,0
          22.847,48.66496,0
          22.84695,48.665,0
          22.84692,48.66507,0
          22.84688,48.66519,0
          22.84685,48.66526,0
          22.84681,48.66529,0
          22.84674,48.66533,0
          22.84666,48.66536,0
          22.84661,48.66537,0
          22.8461,48.66555,0
          22.8459,48.66564,0
          22.84587,48.66566,0
          22.84547,48.66602,0
          22.84533,48.66619,0
          22.84513,48.66632,0
          22.84472,48.66647,0
          22.84459,48.6665,0
          22.84418,48.66662,0
          22.84361,48.66681,0
          22.84336,48.66688,0
          22.8431,48.66694,0
          22.84072,48.6674,0
          22.83943,48.6675,0
          22.83749,48.66757,0
          22.83744,48.66758,0
          22.83714,48.66761,0
          22.83637,48.66775,0
          22.83578,48.66784,0
          22.83537,48.66788,0
          22.83465,48.66789,0
          22.83444,48.66788,0
          22.834,48.66783,0
          22.83311,48.66767,0
          22.83226,48.66758,0
          22.83119,48.66758,0
          22.83014,48.66764,0
          22.82961,48.6677,0
          22.82926,48.66779,0
          22.82897,48.66791,0
          22.82896,48.66791,0
          22.82858,48.6681,0
          22.82836,48.66825,0
          22.82809,48.66849,0
          22.82803,48.66857,0
          22.82782,48.66898,0
          22.82774,48.66911,0
          22.82752,48.66938,0
          22.82749,48.6694,0
          22.82736,48.66951,0
          22.82719,48.66962,0
          22.82681,48.66978,0
          22.82636,48.66994,0
          22.82578,48.6702,0
          22.82505,48.67057,0
          22.82474,48.67079,0
          22.82383,48.67138,0
          22.82357,48.67149,0
          22.82327,48.6716,0
          22.82261,48.67175,0
          22.8221,48.67189,0
          22.82201,48.67193,0
          22.82145,48.67214,0
          22.82088,48.67243,0
          22.82028,48.67266,0
          22.82017,48.67269,0
          22.8192,48.67302,0
          22.81918,48.67303,0
          22.8187,48.67316,0
          22.81858,48.6732,0
          22.81768,48.67337,0
          22.81713,48.67345,0
          22.81517,48.6738,0
          22.81462,48.67388,0
          22.81449,48.67387,0
          22.81313,48.67384,0
          22.81287,48.67385,0
          22.81286,48.67386,0
          22.81267,48.6739,0
          22.81238,48.67399,0
          22.8122,48.67407,0
          22.81153,48.67442,0
          22.81138,48.67453,0
          22.81126,48.67464,0
          22.8111,48.67483,0
          22.81059,48.67569,0
          22.81048,48.67594,0
          22.81038,48.67623,0
          22.81019,48.677,0
          22.81006,48.67731,0
          22.80988,48.67768,0
          22.80979,48.6778,0
          22.80964,48.67792,0
          22.80942,48.67805,0
          22.80809,48.67873,0
          22.80753,48.67915,0
          22.80719,48.67944,0
          22.80703,48.67956,0
          22.80682,48.67968,0
          22.80561,48.68008,0
          22.80554,48.68011,0
          22.80506,48.68025,0
          22.80485,48.68027,0
          22.8046,48.68026,0
          22.80425,48.68018,0
          22.80354,48.67998,0
          22.80113,48.67919,0
          22.80105,48.67917,0
          22.79989,48.67922,0
          22.79776,48.67938,0
          22.79669,48.67952,0
          22.79591,48.6796,0
          22.79536,48.67961,0
          22.79313,48.67929,0
          22.79285,48.67927,0
          22.79002,48.67918,0
          22.78908,48.6791,0
          22.78766,48.67886,0
          22.78758,48.67884,0
          22.7874,48.67881,0
          22.78715,48.67875,0
          22.78636,48.6786,0
          22.7861,48.67854,0
          22.78273,48.67788,0
          22.78271,48.67787,0
          22.77179,48.67568,0
          22.76949,48.67525,0
          22.76319,48.67398,0
          22.7594,48.67309,0
          22.75675,48.67227,0
          22.75618,48.67213,0
          22.75341,48.67181,0
          22.75268,48.67176,0
          22.7526,48.67174,0
          22.75189,48.6717,0
          22.75168,48.6717,0
          22.7511,48.67174,0
          22.75082,48.67179,0
          22.74719,48.67231,0
          22.747,48.67241,0
          22.74697,48.67243,0
          22.74692,48.67244,0
          22.7256,48.67511,0
          22.72525,48.67518,0
          22.7252,48.6752,0
          22.72414,48.67551,0
          22.72222,48.67619,0
          22.72011,48.67708,0
          22.71848,48.67773,0
          22.71769,48.67799,0
          22.71706,48.67814,0
          22.71569,48.67843,0
          22.71456,48.67864,0
          22.70704,48.68017,0
          22.70701,48.68018,0
          22.70199,48.6812,0
          22.69842,48.68188,0
          22.69491,48.68241,0
          22.69047,48.68314,0
          22.68804,48.68361,0
          22.68773,48.68369,0
          22.68008,48.68605,0
          22.67946,48.68626,0
          22.67799,48.68696,0
          22.67796,48.68698,0
          22.67738,48.68727,0
          22.67573,48.68816,0
          22.67525,48.68839,0
          22.67452,48.6887,0
          22.6736,48.68906,0
          22.67299,48.68933,0
          22.67267,48.68944,0
          22.668,48.69142,0
          22.66235,48.69375,0
          22.66223,48.69379,0
          22.66117,48.69425,0
          22.65758,48.69565,0
          22.65636,48.6961,0
          22.6557,48.69638,0
          22.65501,48.69661,0
          22.65483,48.69666,0
          22.65448,48.69673,0
          22.64621,48.6977,0
          22.64594,48.69772,0
          22.64302,48.69806,0
          22.64271,48.69811,0
          22.64046,48.69857,0
          22.63502,48.69977,0
          22.63501,48.69977,0
          22.63317,48.70011,0
          22.6272,48.70112,0
          22.6266,48.70124,0
          22.62618,48.70137,0
          22.62617,48.70137,0
          22.62234,48.70261,0
          22.62226,48.70263,0
          22.61422,48.70524,0
          22.61028,48.70645,0
          22.60974,48.70663,0
          22.60972,48.70663,0
          22.60922,48.70681,0
          22.60877,48.70695,0
          22.60834,48.70711,0
          22.60644,48.70775,0
          22.60433,48.70862,0
          22.60416,48.70868,0
          22.60396,48.70872,0
          22.60353,48.70888,0
          22.60309,48.70908,0
          22.60303,48.7091,0
          22.60268,48.70926,0
          22.6025,48.70936,0
          22.60232,48.70948,0
          22.60227,48.70954,0
          22.6022,48.70969,0
          22.60217,48.70978,0
          22.60215,48.70989,0
          22.60204,48.71076,0
          22.60198,48.7116,0
          22.60189,48.71228,0
          22.60186,48.7124,0
          22.60179,48.71253,0
          22.60166,48.71272,0
          22.60097,48.7136,0
          22.5983,48.7167,0
          22.5982,48.7168,0
          22.59785,48.7173,0
          22.59773,48.71745,0
          22.59713,48.71832,0
          22.59656,48.71922,0
          22.59643,48.71945,0
          22.59632,48.71958,0
          22.59626,48.71961,0
          22.5962,48.71965,0
          22.59586,48.71977,0
          22.59572,48.71984,0
          22.59455,48.72033,0
          22.5936,48.72078,0
          22.57987,48.7244,0
          22.57985,48.72441,0
          22.57832,48.72479,0
          22.57815,48.72484,0
          22.57797,48.72488,0
          22.5778,48.7249,0
          22.57767,48.7249,0
          22.57735,48.72487,0
          22.57718,48.72483,0
          22.57659,48.72472,0
          22.55986,48.72117,0
          22.55926,48.72108,0
          22.5588,48.72108,0
          22.55812,48.72112,0
          22.55297,48.72161,0
          22.55236,48.72172,0
          22.55092,48.7222,0
          22.54977,48.72261,0
          22.54882,48.72292,0
          22.54808,48.72319,0
          22.5478,48.72337,0
          22.54766,48.72354,0
          22.54744,48.72394,0
          22.54724,48.72445,0
          22.54697,48.725,0
          22.54645,48.7262,0
          22.54631,48.72644,0
          22.54625,48.7265,0
          22.54624,48.72652,0
          22.54605,48.72667,0
          22.54566,48.72692,0
          22.54493,48.7273,0
          22.54456,48.72746,0
          22.54419,48.7276,0
          22.54305,48.72789,0
          22.5428,48.72794,0
          22.54236,48.72806,0
          22.54204,48.72812,0
          22.54151,48.72816,0
          22.54119,48.72817,0
          22.54052,48.72812,0
          22.5403,48.72809,0
          22.5402,48.72807,0
          22.53939,48.72797,0
          22.53868,48.72791,0
          22.53733,48.72787,0
          22.53689,48.72789,0
          22.53533,48.72805,0
          22.53424,48.72825,0
          22.53375,48.72838,0
          22.53294,48.72864,0
          22.53262,48.72883,0
          22.53248,48.72895,0
          22.53179,48.72962,0
          22.53144,48.73004,0
          22.53143,48.73004,0
          22.53127,48.73031,0
          22.53116,48.73063,0
          22.53108,48.73077,0
          22.53102,48.73086,0
          22.53096,48.73092,0
          22.53083,48.73103,0
          22.5302,48.73143,0
          22.53001,48.73153,0
          22.52964,48.73169,0
          22.52942,48.73177,0
          22.52843,48.73206,0
          22.52833,48.7321,0
          22.52809,48.73216,0
          22.52807,48.73216,0
          22.52782,48.73222,0
          22.52764,48.73225,0
          22.52745,48.73227,0
          22.52183,48.73258,0
          22.52179,48.73259,0
          22.5205,48.73267,0
          22.51937,48.73282,0
          22.51896,48.73289,0
          22.51853,48.73301,0
          22.51764,48.73332,0
          22.51744,48.73337,0
          22.51672,48.73349,0
          22.51613,48.73352,0
          22.50623,48.73334,0
          22.5031,48.73334,0
          22.50189,48.73327,0
          22.50101,48.73318,0
          22.50068,48.73313,0
          22.50065,48.73313,0
          22.49783,48.73261,0
          22.49749,48.73257,0
          22.49723,48.73256,0
          22.49584,48.73268,0
          22.49226,48.73307,0
          22.48938,48.73349,0
          22.48759,48.73379,0
          22.48736,48.73386,0
          22.48716,48.73395,0
          22.48706,48.7341,0
          22.48702,48.73421,0
          22.487,48.73438,0
          22.48703,48.73456,0
          22.48716,48.73496,0
          22.48717,48.73505,0
          22.48717,48.73517,0
          22.48713,48.73528,0
          22.48697,48.73555,0
          22.48683,48.73571,0
          22.48671,48.73588,0
          22.48431,48.73496,0
          22.48348,48.73469,0
          22.48326,48.73463,0
          22.48292,48.73456,0
          22.48229,48.73449,0
          22.48204,48.73448,0
          22.48177,48.73449,0
          22.48133,48.73454,0
          22.4785,48.73477,0
          22.47768,48.73481,0
          22.47742,48.73484,0
          22.4774,48.73485,0
          22.47729,48.73487,0
          22.47716,48.73491,0
          22.47715,48.73491,0
          22.47643,48.73515,0
          22.47642,48.73516,0
          22.47573,48.73542,0
          22.47554,48.73548,0
          22.47549,48.73549,0
          22.47539,48.73549,0
          22.47533,48.73547,0
          22.47478,48.73508,0
          22.47405,48.73441,0
          22.47349,48.73396,0
          22.47289,48.73367,0
          22.47226,48.73343,0
          22.47214,48.7334,0
          22.47192,48.73338,0
          22.47177,48.73338,0
          22.47152,48.73342,0
          22.47104,48.73358,0
          22.46949,48.73419,0
          22.46935,48.73423,0
          22.46925,48.73425,0
          22.46915,48.73428,0
          22.46887,48.7343,0
          22.46862,48.7343,0
          22.45343,48.73344,0
          22.45322,48.73341,0
          22.45302,48.73337,0
          22.45255,48.73325,0
          22.45248,48.73322,0
          22.45225,48.73315,0
          22.45224,48.73315,0
          22.452,48.73306,0
          22.45195,48.73303,0
          22.45183,48.73298,0
          22.45115,48.7326,0
          22.45055,48.73224,0
          22.45049,48.73221,0
          22.45034,48.7321,0
          22.45023,48.73203,0
          22.45008,48.73191,0
          22.44985,48.73162,0
          22.44977,48.73148,0
          22.44928,48.73052,0
          22.44845,48.72918,0
          22.44787,48.72832,0
          22.44784,48.72826,0
          22.4478,48.72814,0
          22.44779,48.72805,0
          22.4478,48.72774,0
          22.44779,48.72755,0
          22.44774,48.72733,0
          22.4477,48.72724,0
          22.4475,48.72691,0
          22.44745,48.72684,0
          22.44723,48.7266,0
          22.44692,48.7263,0
          22.44661,48.72605,0
          22.44658,48.72602,0
          22.44647,48.72595,0
          22.446,48.72569,0
          22.44549,48.72545,0
          22.44452,48.72504,0
          22.44388,48.72479,0
          22.44313,48.72446,0
          22.44304,48.72441,0
          22.44205,48.72396,0
          22.44185,48.72385,0
          22.44173,48.72377,0
          22.44157,48.72364,0
          22.44143,48.7235,0
          22.44128,48.72332,0
          22.44107,48.72302,0
          22.44106,48.72299,0
          22.44081,48.72259,0
          22.44016,48.7213,0
          22.44007,48.7211,0
          22.43997,48.72095,0
          22.43992,48.7209,0
          22.43984,48.72079,0
          22.43958,48.72054,0
          22.43926,48.72013,0
          22.43891,48.71956,0
          22.43861,48.71901,0
          22.43856,48.71888,0
          22.43854,48.71878,0
          22.43854,48.7187,0
          22.43853,48.71866,0
          22.43853,48.71857,0
          22.43855,48.71837,0
          22.43856,48.71834,0
          22.43866,48.71761,0
          22.4387,48.71744,0
          22.43886,48.71655,0
          22.43889,48.71631,0
          22.4389,48.71611,0
          22.4389,48.71588,0
          22.43885,48.71572,0
          22.43879,48.7156,0
          22.43863,48.71536,0
          22.43834,48.71501,0
          22.4382,48.71486,0
          22.43792,48.71461,0
          22.43787,48.71458,0
          22.43782,48.71454,0
          22.43767,48.71445,0
          22.43765,48.71445,0
          22.43744,48.71435,0
          22.43713,48.71425,0
          22.43576,48.71375,0
          22.43572,48.71373,0
          22.43426,48.71315,0
          22.4342,48.71312,0
          22.43382,48.71298,0
          22.43356,48.71287,0
          22.43344,48.71283,0
          22.43333,48.71278,0
          22.43238,48.71243,0
          22.43177,48.71218,0
          22.43142,48.71202,0
          22.43116,48.71188,0
          22.43084,48.71169,0
          22.43076,48.71163,0
          22.43065,48.71156,0
          22.4295,48.71059,0
          22.42947,48.71057,0
          22.42816,48.70939,0
          22.42794,48.70916,0
          22.42746,48.7086,0
          22.4273,48.70834,0
          22.42718,48.70818,0
          22.42716,48.70814,0
          22.42713,48.70811,0
          22.42708,48.70802,0
          22.42698,48.70778,0
          22.42691,48.70758,0
          22.42684,48.70712,0
          22.42683,48.70709,0
          22.42683,48.70691,0
          22.42684,48.70686,0
          22.42685,48.70673,0
          22.42685,48.70657,0
          22.42684,48.70651,0
          22.42666,48.70599,0
          22.4265,48.70568,0
          22.42649,48.70565,0
          22.42641,48.70549,0
          22.42624,48.70506,0
          22.426,48.70452,0
          22.42599,48.70447,0
          22.42594,48.7043,0
          22.42591,48.70411,0
          22.42591,48.70405,0
          22.42589,48.70389,0
          22.42589,48.70381,0
          22.4259,48.70375,0
          22.42594,48.70365,0
          22.42602,48.7035,0
          22.42606,48.70341,0
          22.42609,48.70336,0
          22.42613,48.70326,0
          22.42613,48.70324,0
          22.42615,48.70314,0
          22.42615,48.70234,0
          22.4262,48.70153,0
          22.42625,48.70126,0
          22.42635,48.70085,0
          22.42645,48.70056,0
          22.4265,48.70038,0
          22.42653,48.7003,0
          22.42657,48.70016,0
          22.4266,48.69991,0
          22.42659,48.69959,0
          22.42662,48.69913,0
          22.42674,48.69805,0
          22.42677,48.69751,0
          22.42677,48.6973,0
          22.42669,48.6969,0
          22.42666,48.69666,0
          22.42669,48.69645,0
          22.42669,48.6964,0
          22.42674,48.69623,0
          22.42698,48.69589,0
          22.42723,48.69559,0
          22.42793,48.69496,0
          22.42819,48.69467,0
          22.42828,48.69452,0
          22.42831,48.69446,0
          22.42833,48.69439,0
          22.42834,48.69433,0
          22.42834,48.69431,0
          22.42836,48.69423,0
          22.4284,48.69351,0
          22.4284,48.69338,0
          22.42839,48.69325,0
          22.42838,48.69321,0
          22.42838,48.69316,0
          22.42835,48.69305,0
          22.42826,48.69283,0
          22.42822,48.69277,0
          22.42817,48.69268,0
          22.42791,48.69233,0
          22.42772,48.69211,0
          22.42758,48.69198,0
          22.42747,48.69189,0
          22.4271,48.69162,0
          22.42645,48.69124,0
          22.42576,48.69092,0
          22.42272,48.68983,0
          22.42221,48.68969,0
          22.42199,48.68965,0
          22.42188,48.68962,0
          22.41896,48.68918,0
          22.41791,48.689,0
          22.41686,48.68879,0
          22.4166,48.68875,0
          22.41634,48.68869,0
          22.41556,48.68854,0
          22.41502,48.68846,0
          22.41469,48.68843,0
          22.41436,48.68843,0
          22.41382,48.68848,0
          22.41289,48.68866,0
          22.4093,48.6895,0
          22.4087,48.68959,0
          22.40849,48.68961,0
          22.40843,48.68961,0
          22.40822,48.68963,0
          22.40788,48.68964,0
          22.40759,48.68962,0
          22.40727,48.68957,0
          22.40682,48.68947,0
          22.40627,48.68929,0
          22.40609,48.6892,0
          22.40603,48.68918,0
          22.40565,48.68897,0
          22.40532,48.68872,0
          22.40531,48.6887,0
          22.40517,48.68857,0
          22.40516,48.68855,0
          22.40506,48.68843,0
          22.40504,48.68839,0
          22.40498,48.68831,0
          22.40493,48.68823,0
          22.40493,48.68822,0
          22.40486,48.68809,0
          22.40477,48.68788,0
          22.40466,48.68754,0
          22.40466,48.68753,0
          22.40461,48.68735,0
          22.40446,48.6867,0
          22.40436,48.68644,0
          22.40431,48.68633,0
          22.40422,48.68616,0
          22.40406,48.68591,0
          22.40395,48.68576,0
          22.40356,48.68534,0
          22.40348,48.68527,0
          22.40303,48.68493,0
          22.40275,48.68475,0
          22.40255,48.68466,0
          22.40232,48.68451,0
          22.40188,48.68417,0
          22.40128,48.6836,0
          22.39174,48.67514,0
          22.39164,48.67508,0
          22.3916,48.67505,0
          22.39136,48.67491,0
          22.38776,48.67324,0
          22.37142,48.66548,0
          22.37075,48.66514,0
          22.36769,48.66373,0
          22.36302,48.66149,0
          22.36199,48.66103,0
          22.35872,48.65945,0
          22.35616,48.65826,0
          22.3556,48.65798,0
          22.35332,48.65693,0
          22.35245,48.65649,0
          22.35244,48.65649,0
          22.35059,48.65563,0
          22.34974,48.65519,0
          22.34952,48.65504,0
          22.3494,48.65494,0
          22.34914,48.65477,0
          22.34903,48.65473,0
          22.34895,48.65471,0
          22.34886,48.6547,0
          22.34828,48.6547,0
          22.34822,48.65469,0
          22.34817,48.65467,0
          22.3481,48.65465,0
          22.34803,48.65462,0
          22.34707,48.65399,0
          22.34702,48.65397,0
          22.34683,48.65386,0
          22.34627,48.65357,0
          22.3452,48.65306,0
          22.34515,48.65303,0
          22.34455,48.65275,0
          22.34363,48.65226,0
          22.34313,48.65195,0
          22.34244,48.65148,0
          22.34225,48.65133,0
          22.34213,48.65122,0
          22.34186,48.65092,0
          22.34098,48.64975,0
          22.3407,48.64935,0
          22.34028,48.6488,0
          22.34014,48.64864,0
          22.33997,48.64848,0
          22.33976,48.64833,0
          22.33964,48.64823,0
          22.33916,48.64791,0
          22.33894,48.6477,0
          22.33812,48.64647,0
          22.33685,48.64473,0
          22.33634,48.64395,0
          22.33336,48.63967,0
          22.33329,48.63959,0
          22.33315,48.63945,0
          22.33295,48.63929,0
          22.33264,48.63902,0
          22.3323,48.63881,0
          22.3312,48.63828,0
          22.33085,48.63814,0
          22.32924,48.63744,0
          22.32488,48.63547,0
          22.32485,48.63546,0
          22.32352,48.63486,0
          22.32346,48.63484,0
          22.3178,48.63223,0
          22.31774,48.63221,0
          22.31699,48.63186,0
          22.31636,48.6316,0
          22.31023,48.62882,0
          22.30972,48.62861,0
          22.30791,48.62776,0
          22.30693,48.62734,0
          22.30679,48.62727,0
          22.30674,48.62725,0
          22.30668,48.6272,0
          22.30662,48.62714,0
          22.30649,48.62697,0
          22.30632,48.6267,0
          22.30613,48.62644,0
          22.30606,48.62636,0
          22.306,48.62632,0
          22.30595,48.62627,0
          22.30581,48.62619,0
          22.30569,48.62615,0
          22.30568,48.62615,0
          22.30539,48.6261,0
          22.30251,48.6259,0
          22.30168,48.62591,0
          22.30056,48.62599,0
          22.30044,48.62544,0
          22.30044,48.62528,0
          22.30047,48.62492,0
          22.30049,48.62484,0
          22.3003,48.62478,0
          22.30028,48.62478,0
          22.30017,48.62475,0
          22.29963,48.62456,0
          22.29991,48.62427,0
          22.30033,48.62395,0
          22.3006,48.62377,0
          22.30104,48.6235,0
          22.30132,48.6233,0
          22.30153,48.62313,0
          22.30163,48.62299,0
          22.30173,48.62289,0
          22.30184,48.62282,0
          22.30201,48.62273,0
          22.30218,48.62266,0
          22.30227,48.62266,0
          22.30259,48.6227,0
          22.30276,48.6227,0
          22.3034,48.62253,0
          22.30383,48.62235,0
          22.30413,48.62215,0
          22.30415,48.62214,0
          22.30431,48.62202,0
          22.30463,48.6216,0
          22.30468,48.62154,0
          22.30485,48.62143,0
          22.30585,48.62095,0
          22.30619,48.62073,0
          22.30628,48.62065,0
          22.30629,48.62062,0
          22.30632,48.62058,0
          22.30636,48.62049,0
          22.30643,48.62037,0
          22.30647,48.62032,0
          22.30653,48.62026,0
          22.30666,48.62018,0
          22.3067,48.62018,0
          22.30673,48.62017,0
          22.30693,48.62015,0
          22.30707,48.62015,0
          22.30742,48.62028,0
          22.30707,48.62015,0
          22.30693,48.62015,0
          22.30673,48.62017,0
          22.3067,48.62018,0
          22.30666,48.62018,0
          22.30653,48.62026,0
          22.30647,48.62032,0
          22.30643,48.62037,0
          22.30636,48.62049,0
          22.30632,48.62058,0
          22.30629,48.62062,0
          22.30628,48.62065,0
          22.30619,48.62073,0
          22.30585,48.62095,0
          22.30568,48.62103,0
          22.30545,48.62074,0
          22.30543,48.62072,0
          22.30534,48.62067,0
          22.30524,48.62064,0
          22.30518,48.62063,0
          22.30499,48.62063,0
          22.30497,48.62064,0
          22.30491,48.62064,0
          22.30478,48.62068,0
          22.30463,48.62074,0
          22.30427,48.62091,0
          22.30415,48.62099,0
          22.3041,48.62103,0
          22.30334,48.62082,0
          22.30382,48.62065,0
          22.30472,48.62025,0
          22.30481,48.62023,0
          22.30486,48.62021,0
          22.30491,48.62021,0
          22.30495,48.6202,0
          22.30541,48.62021,0
          22.30552,48.62018,0
          22.30555,48.62016,0
          22.30583,48.6199,0
          22.30646,48.61941,0
          22.30678,48.61923,0
          22.30784,48.61876,0
          22.30798,48.61872,0
          22.30827,48.61866,0
          22.30801,48.61774,0
          22.30779,48.61703,0
          22.30772,48.61684,0
          22.30763,48.61667,0
          22.30738,48.61631,0
          22.30727,48.61617,0
          22.30696,48.61582,0
          22.30729,48.61568,0
          22.31103,48.61441,0
          22.31127,48.61428,0
          22.3114,48.6142,0
          22.31189,48.61384,0
          22.31358,48.61229,0
          22.31414,48.61175,0
          22.31411,48.61158,0
          22.31405,48.61146,0
          22.31396,48.61133,0
          22.31175,48.61035,0
          22.31133,48.61013,0
          22.31087,48.60991,0
          22.31077,48.60984,0
          22.31068,48.60975,0
          22.31068,48.60971,0
          22.3107,48.60964,0
          22.31072,48.60961,0
          22.31073,48.60958,0
          22.31149,48.60861,0
          22.31198,48.6079,0
          22.31202,48.60772,0
          22.31202,48.60749,0
          22.31199,48.60733,0
          22.31184,48.60688,0
          22.3118,48.60679,0
          22.31175,48.60674,0
          22.31167,48.60668,0
          22.3116,48.60665,0
          22.31066,48.60634,0
          22.31013,48.60619,0
          22.30987,48.60614,0
          22.30946,48.6061,0
          22.30934,48.60607,0
          22.30929,48.60605,0
          22.30838,48.60576,0
          22.30853,48.60561,0
          22.30858,48.60553,0
          22.30924,48.6047,0
          22.30967,48.60411,0
          22.31216,48.60091,0
          22.31321,48.59962,0
          22.31388,48.59871,0
          22.31391,48.59868,0
          22.31457,48.59787,0
          22.31645,48.59546,0
          22.31647,48.59542,0
          22.31662,48.59525,0
          22.31685,48.59494,0
          22.3169,48.59489,0
          22.31814,48.59327,0
          22.31818,48.59323,0
          22.31836,48.593,0
          22.31878,48.59252,0
          22.31887,48.59244,0
          22.31892,48.59238,0
          22.31906,48.59227,0
          22.31912,48.59221,0
        </coordinates>
      </LineString>
    </Placemark>
    <Placemark>
      <name>Поляна, Закарпатська область</name>
      <styleUrl>#icon-1899-DB4436-nodesc</styleUrl>
      <Point>
        <coordinates>
          22.9625505,48.6225016,0
        </coordinates>
      </Point>
    </Placemark>
    <Placemark>
      <name>Ужгородський замок, вулиця Капітульна, Ужгород, Закарпатська область</name>
      <styleUrl>#icon-1899-DB4436-nodesc</styleUrl>
      <Point>
        <coordinates>
          22.3058451,48.6209504,0
        </coordinates>
      </Point>
    </Placemark>
    <Placemark>
      <name>Музей народної архітектури та побуту, вулиця Капітульна, Ужгород, Закарпатська область</name>
      <styleUrl>#icon-1899-DB4436-nodesc</styleUrl>
      <Point>
        <coordinates>
          22.3074182,48.6202783,0
        </coordinates>
      </Point>
    </Placemark>
    <Placemark>
      <name>Деца у Нотаря, вулиця Карпатської України, Ужгород, Закарпатська область</name>
      <styleUrl>#icon-1899-DB4436-nodesc</styleUrl>
      <Point>
        <coordinates>
          22.319122,48.5922131,0
        </coordinates>
      </Point>
    </Placemark>
  </Document>
</kml>
